tid,loc_name,address_1,latitude,longitude,city,state,RunID,RunDate,InsertUpdateTime,postal_code,country,neighborhood,address_2
6777,"Jawaharban, Lokhandwala Complex Road - Andheri (West)","Shop No. 5, B Wing, Jawaharban Co-operative Housing Society Limited, CTS No 825/1 (PT), Lokhandwala Road, Sahyog Nagar, Four Bunglows, Andheri (West)",19.13081,72.82607,Mumbai,Maharashtra,46300,03-05-2022 09:01,03-05-2022 09:01,400053,India,Andheri (West),Kokilaben Ambani Hospital
6778,"Gyan Ashram, Mahakali Caves - Andheri (East)","Shop No. 20, New Malinee Co-operative Housing Society Limited, Mahakali Caves Road, Mahakali, Andheri (East)",19.124674,72.86476,Mumbai,Maharashtra,46300,03-05-2022 09:01,03-05-2022 09:01,400093,India,Andheri (East),Canossa School
6779,Takshila - Andheri (East),"Shop No. 4, Takshila Building No. 4, Off Takshila Co-Operative Housing Society Limited., Mahakali Caves Road, Andheri (East)",19.131662,72.86906,Mumbai,Maharashtra,46300,03-05-2022 09:01,03-05-2022 09:01,400093,India,Andheri (East),Takshila Society
6780,Shastri Nagar Lane No. 1 - Andheri (West),"Shop No. 2, Building No. X-13, Andheri Garden View CHSL, Garden View, Shastri Nagar, Andheri (West)",19.139675,72.827324,Mumbai,Maharashtra,46300,03-05-2022 09:01,03-05-2022 09:01,400053,India,Andheri (West),Lokhandwala Circle
6781,The Country Club - Veera Desai Road - Andheri (West),"Shop No. A 10, Building No. 3, Orchid, Prathamesh Complex, Veera Desai Road, Andheri (West)",19.138521,72.836945,Mumbai,Maharashtra,46300,03-05-2022 09:01,03-05-2022 09:01,400053,India,Andheri (West),Country Club
6782,Unnat Nagar - Goregaon (West),"Gala No. 11 , Ground Floor, A-Wing , Kiran Industrial Premises Co. Op. Society Ltd, Mahatma Gandhi Road (M G Road), Goregaon (West)",19.164042,72.84361,Mumbai,Maharashtra,46300,03-05-2022 09:01,03-05-2022 09:01,400104,India,Goregaon (West),Mogaveera Bank
6783,Azad Maidan - Goregaon (West),"Shop No. 2 & 3 , Ground Floor , Pearl Classic, Unnat Nagar Part 3, Near Sane Guruji Nagar, Goregaon (West)",19.16504,72.840775,Mumbai,Maharashtra,46300,03-05-2022 09:01,03-05-2022 09:01,400104,India,Goregaon (West),Rationing Office
6784,Chikalwadi - Tardeo,"Shop No A/12, Mahavir Apartment, Ganga Jamuna Co-Operative Housing Society Limited, Javji Dadaji Marg Old, Chikalwadi, Tardeo",18.966465,72.81385,Mumbai,Maharashtra,46300,03-05-2022 09:01,03-05-2022 09:01,400007,India,Tardeo,Bhatia Hospital
6785,Jawahar Nagar - Goregaon (West),"Shop No. 1 , Ground Floor , Plot No. 110 , Gajanan Building No. 5 , Jawahar Nagar Co. Op. Hsg. Society , Goregaon Station Road No. 1 , Goregaon (West)",19.160877,72.84866,Mumbai,Maharashtra,46300,03-05-2022 09:01,03-05-2022 09:01,400104,India,Goregaon (West),Jain Mandir
6786,"Parleshwar Society, Shahaji Raje Marg - Vile Parle (East)","Shop No. 2, Building C, Parleshwar Society, Vora Industrial Estate, Shahaji Raje Marg., Paranjape Nagar, Vile Parle (East)",19.106014,72.847084,Mumbai,Maharashtra,46300,03-05-2022 09:01,03-05-2022 09:01,400057,India,Vile Parle (East),Vateshwar Hanuman Mandir
6787,Shastri Nagar - Goregaon (West),"Shop No 3 & 4, 14 - Millennium Co-operative Housing Society Limited, Shastri Nagar, Goregaon (W), Goregaon (West)",19.160845,72.83542,Mumbai,Maharashtra,46300,03-05-2022 09:01,03-05-2022 09:01,400104,India,Goregaon (West),Shastri Nagar Ground
6788,"Deep Towers, D N Nagar - Andheri (West)","Shop No. 6, 7 & 8, B-Wing, Shubh Residency, Deep Co-operative Housing Society Limited, D N Nagar, Off J P Road, Andheri (West)",19.126848,72.83366,Mumbai,Maharashtra,46300,03-05-2022 09:01,03-05-2022 09:01,400053,India,Andheri (West),Idgah Masjid
6789,"Mangal Jyothi, Juhu Lane - Andheri (West)","Shop 2 / 7, Mangal Jyoti CHSL, 485 Juhu Lane, Off. Gulmohar Road, Andheri (West)",19.112846,72.83765,Mumbai,Maharashtra,46300,03-05-2022 09:01,03-05-2022 09:01,400058,India,Andheri (West),Irla Masjid
6790,Prabhat Colony - Santacruz (East),"Shop No. 1, Nandadeep Building, Plot No. 128, Jet Age CHSL, Prabhat Colony, Gandhi Chowk, Santacruz (East)",19.083801,72.84375,Mumbai,Maharashtra,46300,03-05-2022 09:01,03-05-2022 09:01,400055,India,Santacruz (East),Agrasen Chowk
6791,"Jayanti Nivas, Juhu Church Road - Juhu","Jayanti Niwas, G P Chaudhary Lane, Jukarwadi, Juhu Tara Road, Juhu",19.111925,72.82646,Mumbai,Maharashtra,46300,03-05-2022 09:01,03-05-2022 09:01,400049,India,Juhu,ISKCON Temple
6792,"Seeta Mahal, Bomanji Petit Marg - Cumballa Hill","Seeta Mahal, Bomanji Petit Marg, Cumballa Hill",18.967178,72.80551,Mumbai,Maharashtra,46300,03-05-2022 09:01,03-05-2022 09:01,400026,India,Cumballa Hill,BD Petit Parsee Hospital
6793,"Sagar Kunj, Nepean Sea Road - Malabar Hill","Shop No. 2, Sagar Kunj Co-operative Housing Society Limited, 78 Nepean Sea Road, Rungta Lane, Malabar Hill",18.953842,72.79762,Mumbai,Maharashtra,46300,03-05-2022 09:01,03-05-2022 09:01,400006,India,Malabar Hill,Priyadarshini Park
6794,"Mogra Vikas Paradise, Jijabai Road - Andheri (East)","Shop No. 6, Mogra Vikas Nagar Co-operative Housing Society Limited, Rajmata Jijabai Road, Andheri (East)",19.129139,72.86053,Mumbai,Maharashtra,46300,03-05-2022 09:01,03-05-2022 09:01,400069,India,Andheri (East),Vikas Nagar
6795,"Glenndale Apartment, N P Thakkar Road - Vile Parle (East)","Shop No. 3, Glenndale Apartment, N P Thakkar Road, Vile Parle (East)",19.094715,72.845085,Mumbai,Maharashtra,46300,03-05-2022 09:01,03-05-2022 09:01,400057,India,Vile Parle (East),Rajpuria Hall
6796,"Heeramani, Bangur Nagar - Goregaon (West)","Shop No. 24, M-1 Building Heeramani Co-operative Housing Society Limited, Off Link Road, Bangur Nagar, Goregaon (West)",19.165892,72.83337,Mumbai,Maharashtra,46300,03-05-2022 09:01,03-05-2022 09:01,400104,India,Goregaon (West),Bangur Nagar Shopping Centre
6797,"Railway Hotel, Cama Baug - Charni Road (East)","Shop No. 4, Railway Hotel, Raja Ram Mohan Roy Marg, Cama Baug, Girgaon, Charni Road (East)",18.961472,72.82002,Mumbai,Maharashtra,46300,03-05-2022 09:01,03-05-2022 09:01,400004,India,Charni Road (East),Kabootar Khana
6798,"Zee Chhaya, Prathna Samaj - Vile Parle (East)","Shop No. 2, Zee Chhaya Co-operative Housing Society Limited, Prathana Samaj Road, Opp: Madhavbaug Clinic, Near Shiv Sangam Dairy, Vile Parle (East)",19.100782,72.84829,Mumbai,Maharashtra,46300,03-05-2022 09:01,03-05-2022 09:01,400057,India,Vile Parle (East),Atharv Palace
6799,"Kaustubh Usha Building, Evershine Nagar - Malad (West)","Shop No. 14, The Kaustubha Usha Colony Co-operative Housing Society Limited, Ram Chandra Lane Extension, Evershine Nagar, Malad (West)",19.190687,72.83282,Mumbai,Maharashtra,46300,03-05-2022 09:01,03-05-2022 09:01,400064,India,Malad (West),Movie Time Cinema
6800,"Ramdeva CHSL, Gaikwad Nagar, Malwani - Malad (West)","Shop No. 3, The Malwani Ramdeva Co-operative Housing Society Limited, Plot No 31, Sector No 8, MAHADA Project, Behind Malwani Depot, Malad (West)",19.17749,72.816055,Mumbai,Maharashtra,46300,03-05-2022 09:01,03-05-2022 09:01,400095,India,Malad (West),Malvani Bus Depot
6801,"Ashoka Palace CHSL, Makrani Pada - Malad (East)","Shop No. 29, Ashoka Palace Co-operative Housing Society Limited, Makrani Pada, Haji Bapu Patel Road, Malad (East)",19.181469,72.85319,Mumbai,Maharashtra,46300,03-05-2022 09:01,03-05-2022 09:01,400097,India,Malad (East),Ashoka Hospital
6802,"Aquarius Tower, Jankalyan Nagar - Malad (West)","Shop No. 05, Aquarius Taurus Co-operative Housing Society Limited, Marve Road, Malad (West)",19.20011,72.82065,Mumbai,Maharashtra,46300,03-05-2022 09:01,03-05-2022 09:01,400095,India,Malad (West),Jankalyan Nagar
6803,"New Sarita, Poddar Park - Malad (East)","Shop No. 05, New Sarita Co-operative Housing Society Limited, Plot No. F, Poddar Park Circle, Poddar Road, Malad (East)",19.185062,72.850426,Mumbai,Maharashtra,46300,03-05-2022 09:01,03-05-2022 09:01,400097,India,Malad (East),Poddar Park
6804,"Sai Apartments, Pandurangwadi - Goregaon (East)","Shop No. 1, Sai Apartments - (Om Shree Sai Apartment CHSL), Plot No. 6, 5th Road, Pandurangwadi, Goregaon (East)",19.172558,72.84959,Mumbai,Maharashtra,46300,03-05-2022 09:01,03-05-2022 09:01,400063,India,Goregaon (East),Mashur Ashram
6805,"Gayatri Bhuvan, Liberty Garden - Malad (West)","Shop No. 4, Gayatri Bhuvan, Road No. 2, Liberty Garden, Malad (West)",19.185562,72.84225,Mumbai,Maharashtra,46300,03-05-2022 09:01,03-05-2022 09:01,400064,India,Malad (West),Bhavsar Maternity & Nursing Home
6806,"Elly Kadoorie School, Tadwadi - Mazgaon","Shop No. 24/A, 24/B & 24/C, Sir Elly Kadoorie School Compound, Shivdas Champsi Marg, Near Chaitya Temple, Tadwadi, Mazgaon",18.96621,72.83918,Mumbai,Maharashtra,46300,03-05-2022 09:01,03-05-2022 09:01,400010,India,Mazgaon,Sir Elly Kadoorie School
6807,"Ashwamegh Elegance 2, Sheth Mangaldas Road - Ambawadi","Shop No. 3, Ashwamegh Elegance, Sheth Mangaldas Road, Ambawadi Circle, Ellisbridge, Ambawadi",23.0205,72.554375,Ahmedabad,Gujarat,46300,03-05-2022 09:01,03-05-2022 09:01,380006,India,Ambawadi,Ambawadi Circle
6808,"Veena Apartments, Sejal Park - Goregaon (West)","Shop No. 16, Veena Apartment, Veena CHSL, Sejal Park, New Link Road, Goregaon (West)",19.15561,72.83606,Mumbai,Maharashtra,46300,03-05-2022 09:01,03-05-2022 09:01,400104,India,Goregaon (West),McDonald's Restaurant
6809,"Anmol Heights, Konkani Pada - Malad (East)","Shop No. 11, A-Wing, Anmol Heights, Shree Prathamesh Sahakari Grihnirman Sanstha Limited, Konkani Pada, Mahatre Compound, Kurar Village, Malad (East)",19.1837,72.86372,Mumbai,Maharashtra,46300,03-05-2022 09:01,03-05-2022 09:01,400097,India,Malad (East),ICICI Bank ATM
6810,"Evershine Grandeur, Ram Nagar - Malad (West)","Shop No. 1, Evershine Grandeur Co-operative Housing Society Limited, Ram Nagar, Behind Inorbit Mall, Off Link Road, Malad (West)",19.176224,72.833595,Mumbai,Maharashtra,46300,03-05-2022 09:01,03-05-2022 09:01,400064,India,Malad (West),Rustomjee Elanza
6811,"Bagri Niwas, Khatar Gali - Charni Road (East)","Shop No. 1, Bagri Niwas, 53/55 Nath Madhav Path, Khatar Gali, Mangal Wadi, Girgaon, Charni Road (East)",18.953733,72.82544,Mumbai,Maharashtra,46300,03-05-2022 09:01,03-05-2022 09:01,400002,India,Charni Road (East),Mahavirswami Jain Ghar Derasar
6812,"Sai Ram Residency, Pimpripada Road - Malad (East)","Shop No. 2, Sai Ram Residency CHSL, Pimpripada Road, Off. Rani Sati Marg, Malad (East)",19.177376,72.87016,Mumbai,Maharashtra,46300,03-05-2022 09:01,03-05-2022 09:01,400097,India,Malad (East),ICICI Bank ATM
6813,"Cherry Blossom CHSL, D'Monte Lane - Malad (West)","Shop No. 3, Cherry Blossom CHSL, D'Monte Lane, Orlem, Kanchpada, Malad (West)",19.19258,72.837364,Mumbai,Maharashtra,46300,03-05-2022 09:01,03-05-2022 09:01,400064,India,Malad (West),Kanchpada
6814,"Central Plaza, Jagannath Shankar Seth Road - Charni Road (East)","Shop No. 3, New Shingne Building, N S B CHSL, 100 - 100A & 100B Jagannath Shankar Seth Road, Central Plaza, Girgaon, Charni Road (East)",18.955427,72.81801,Mumbai,Maharashtra,46300,03-05-2022 09:01,03-05-2022 09:01,400004,India,Charni Road (East),Free India Bakery
6815,"Andheri Shiv-Shakti CHSL, Amboli Ceasar Road - Andheri (West)","Shop No. SH 04, Andheri Shiv-Shakti CHSL, Nr. Sai Baba Temple, Ceasar Road, Amboli, Andheri (West)",19.127977,72.84089,Mumbai,Maharashtra,46300,03-05-2022 09:01,03-05-2022 09:01,400058,India,Andheri (West),Bombay Cambridge School
6816,"Pagrav CHSL, S V Road - Goregaon (West)","Shop No. 7, Goregaon Pagrav CHSL, 57, S V Road, Goregaon (West)",19.167927,72.84589,Mumbai,Maharashtra,46300,03-05-2022 09:01,03-05-2022 09:01,400104,India,Goregaon (West),LS Patkar College
6817,"XL Plaza, IIT Market - Powai","Shop No. 5 & 6, XL Plaza CHSL, Opp. IIT Main Gate, IIT Market, Hare Krishna Road, Powai",19.125126,72.918144,Mumbai,Maharashtra,46300,03-05-2022 09:01,03-05-2022 09:01,400076,India,Powai,SBI - Powai Market Branch
6818,"Shantivan - I, Raheja Township - Malad (East)","Shop No. 1, Shantivan - 1 CHSL, Off. Road No. 3, Raheja Township, Malad (East)",19.1796,72.856346,Mumbai,Maharashtra,46300,03-05-2022 09:01,03-05-2022 09:01,400097,India,Malad (East),RBI Community Hall
6819,"Hilton Tower, Sher-E-Punjab Society - Andheri (East)","Shop No. 6, Hilton Tower, Sher-E-Punjab Society, Asmita Mogra CHSL, Datta Jagdamba Mandir Marg, Sher-E-Punjab, Andheri (East)",19.125103,72.861,Mumbai,Maharashtra,46300,03-05-2022 09:01,03-05-2022 09:01,400093,India,Andheri (East),Sher-E-Punjab ICICI Bank
6820,"Hari Om Plaza, M G Road - Borivali (East)","Unit No. 31, B Wing, Hari Om Plaza CHSL, M G Road, Nr. Omkareshwar Temple, Sukarwadi, Borivali (East)",19.231495,72.86244,Mumbai,Maharashtra,46300,03-05-2022 09:01,03-05-2022 09:01,400066,India,Borivali (East),State Bank Of India
6821,"Kanal Industrial CSL, Daulat Nagar - Borivali (East)","Gala No. 6, Kanal Industrial Premise CSL, Daulat Nagar Road No. 6, Daulat Nagar, Borivali (East)",19.238136,72.86049,Mumbai,Maharashtra,46300,03-05-2022 09:01,03-05-2022 09:01,400066,India,Borivali (East),Daulat Nagar
6822,"Sahyadri Building, Aarey Road - Goregaon (East)","Shop No. 23, Sahyadri Building, The Goregaon Sahyadri CHSL, Jay Prakash Nagar, Aarey Road, Peru Baug, Goregaon (East)",19.166061,72.85248,Mumbai,Maharashtra,46300,03-05-2022 09:01,03-05-2022 09:01,400063,India,Goregaon (East),TJSB Sahakari Bank Ltd
6823,"Wellingdon View, Sane Guruji Marg - Tardeo","Shop No. 13, Wellingdon View, Gokuldham CHSL, Ratan Tata Colony, Sane Guruji Marg, Tulsiwadi, Tardeo",18.971804,72.81774,Mumbai,Maharashtra,46300,03-05-2022 09:01,03-05-2022 09:01,400034,India,Tardeo,Tardeo Police Station
6824,"Siddhesh Darshan, Khetwadi - Girgaon","Shop No. 1, Siddhesh Darshan (Moti Mansion), 10th Lane & A B Kolhatkar Marg Junction, Khetwadi, Girgaon",18.958815,72.82166,Mumbai,Maharashtra,46300,03-05-2022 09:01,03-05-2022 09:01,400004,India,Girgaon,Pavapuri Mahaveerswami Jain Temple 
6825,"Vic-Mon CHSL, Marol Church Road - Andheri (East)","Shop No. 7, Vic-Mon CHSL, Marol Church Road, Bori Colony, Marol, Andheri (East)",19.111898,72.8752,Mumbai,Maharashtra,46300,03-05-2022 09:01,03-05-2022 09:01,400059,India,Andheri (East),Garden Nursery School
6826,"Malwani Vinayaka CHSL, Malwani - Malad (West)","Shop No. 8, B-Wing, Vinayak Regency (Malwani Vinayaka CHSL), Plot 64, Gaikwad Nagar, RSC Road No. 6, Malwani, Malad (West)",19.180515,72.81289,Mumbai,Maharashtra,46300,03-05-2022 09:01,03-05-2022 09:01,400095,India,Malad (West),Kala Vidya Mandir
6827,"Darshana Apartments, Suresh Colony - Vile Parle (West)","Shop No. 2, Darshana Apartments CHSL, Sarojini Road Extension, Suresh Colony, Vile Parle (West)",19.095446,72.84148,Mumbai,Maharashtra,46300,03-05-2022 09:01,03-05-2022 09:01,400056,India,Vile Parle (West),ESI Dispensary
6828,"Keval Towers, B J Patel Road - Malad (West)","Shop No. 3, A-Wing, Keval Towers CHSL, B J Patel Road, Off. Marve Road, Malad (West)",19.191334,72.84195,Mumbai,Maharashtra,46300,03-05-2022 09:01,03-05-2022 09:01,400064,India,Malad (West),Greater Bombay Co-operative Bank
6829,"Sukh Niwas, 3rd Pasta Lane - Colaba","Shop No. A/8, Sukh Niwas CHSL, 3rd Pasta Lane, Badhwar Park, Apollo Bandar, Colaba",18.917883,72.82756,Mumbai,Maharashtra,46300,03-05-2022 09:01,03-05-2022 09:01,400005,India,Colaba,Matoshree Ketan Ben Chapsee Trust
6830,"Poorti Vihar CHSL, Siddharth Nagar - Goregaon (West)","Shop No.1, Poorti Vihar, Building No. 7, New Shastri Nagar, Opp. Siddharth Hospital, Goregaon (West)",19.160332,72.839584,Mumbai,Maharashtra,46300,03-05-2022 09:01,03-05-2022 09:01,400104,India,Goregaon (West),Guru Nanak Sabha Gurudwara
6831,"Shah Apartments, Marol Maroshi Road - Andheri (East)","Shop No. 4, Shah Apartments CHSL, Marol Maroshi Road, Marol, Andheri (East)",19.115427,72.87971,Mumbai,Maharashtra,46300,03-05-2022 09:01,03-05-2022 09:01,400059,India,Andheri (East),State Bank Bus Stop
6832,"Air View Apartments, Nehru Road - Santacruz (East)","Air View Apartments CHSL, Vakola Bridge, Nehru Road, Santacruz (East)",19.080437,72.85052,Mumbai,Maharashtra,46300,03-05-2022 09:01,03-05-2022 09:01,400055,India,Santacruz (East),B M C Vakola School
6833,"Jamuna Apartments, Sunder Lane - Malad (West)","Shop No. 4, Jamuna Apartments (La-Link CHSL), 64, Sunder Lane, Off New Link Road, Mithchowki, Kanchpada, Malad (West)",19.193922,72.834595,Mumbai,Maharashtra,46300,03-05-2022 09:01,03-05-2022 09:01,400064,India,Malad (West),Shri Balaji International School
6834,"Mahatarangan Apartments, Oshiwara - Jogeshwari (West)","Shop No. 1A, Mahatarangan Apartment, Jn. Oshiwara Police Station Road & BEST Colony Road, Anand Nagar, Oshiwara, Jogeshwari (West)",19.151112,72.833176,Mumbai,Maharashtra,46300,03-05-2022 09:01,03-05-2022 09:01,400102,India,Jogeshwari (West),Mega Mall
6835,"Sun Plaza, Hari Om Nagar Road - Mulund (East)","Shop No. 10, Sun Plaza CHSL, Hari Om Nagar Road, Damoji Patil Wadi, Mulund (East)",19.176632,72.97179,Mumbai,Maharashtra,46300,03-05-2022 09:01,03-05-2022 09:01,400081,India,Mulund (East),Apollo Pharmacy
6836,"Veena Tower, Hill Breeze Road - Mulund (West)","Shop No. 6, Veena Tower CHSL, Veena Nagar, Phase II, Hill Breeze Road, Off LBS Marg, Mulund (West)",19.183302,72.94273,Mumbai,Maharashtra,46300,03-05-2022 09:01,03-05-2022 09:01,400080,India,Mulund (West),Shankar Mahadev Temple
6837,"Ashwa Heights, Naikwadi - Mulund (West)","Shop No. 5 & 6, Ashwa Heights (Karamvir Dada Saheb Gaikwad CHSL), Naikwadi, ACC Cement Road, Mulund (West)",19.181786,72.95782,Mumbai,Maharashtra,46300,03-05-2022 09:01,03-05-2022 09:01,400080,India,Mulund (West),Islampura Masjid
6838,"Mulund Shree Ganesh CHSL, MHADA Colony - Mulund (East)","Shop No. 9, Mulund Shree Ganesh Co-operative Housing Society Limited, Plot No. 4, R R Educational Trust Marg, MHADA Colony, Mulund (East)",19.166344,72.96553,Mumbai,Maharashtra,46300,03-05-2022 09:01,03-05-2022 09:01,400081,India,Mulund (East),State Bank Of India
6839,"Ravi Apartments, Vitthal Nagar - Mulund (West)","Shop No. 3, Ravi Apartment (S. R. A) CHSL, Sevaram Lalwani Road, Vitthal Nagar, Mulund (West)",19.168627,72.95021,Mumbai,Maharashtra,46300,03-05-2022 09:01,03-05-2022 09:01,400080,India,Mulund (West),Vitthal Rukhmini Mandir Trust
6840,"Arihant Royale, Vaishali Nagar - Mulund (West)","Shop No. 1 & 2, Arihant Royale (Pandit CHSL), Shastri Nagar, Bal Rajeshwar Marg, Bhatwadi, Vaishali Nagar, Mulund (West)",19.186949,72.94635,Mumbai,Maharashtra,46300,03-05-2022 09:01,03-05-2022 09:01,400080,India,Mulund (West),Vaishali Nagar Bus Depot
6841,"Chintamani Apartments, Mithagar Road, Mulund - (East)","Shop No. 4, Chintamani Apartments, LIC Housing Colony, Mithagar Road, Patil Nagar, Mulund (East)",19.16394,72.95458,Mumbai,Maharashtra,46300,03-05-2022 09:01,03-05-2022 09:01,400081,India,Mulund (East),Jeevan Nagar Chowk
6842,"Rose CHSL, Amrut Nagar - Jogeshwari (West)","Shop No. 3, Building No. 16, Rose CHSL, Professor Haji Siraj Ebrahim Biviji Marg, Amrut Nagar, Jogeshwari (West)",19.145723,72.84771,Mumbai,Maharashtra,46300,03-05-2022 09:01,03-05-2022 09:01,400102,India,Jogeshwari (West),Little Angels School
6843,"Shanti Sadan, Hanuman Chowk - Mulund (East)","Shop No. 6B, C-Wing, Shanti Sadan Building, Jn. G V Scheme No. 2 & 90 Feet Road, Shri Sai Nath Nagar, Hanuman Chowk, Mulund (East)",19.169296,72.96093,Mumbai,Maharashtra,46300,03-05-2022 09:01,03-05-2022 09:01,400081,India,Mulund (East),SVC Bank
6844,"Sheetal Tapovan, Pathanwadi Road - Malad (East)","Shop No. 9, Sheetal Tapovan, Pathanwadi Road, Malad (East)",19.179996,72.85962,Mumbai,Maharashtra,46300,03-05-2022 09:01,03-05-2022 09:01,400097,India,Malad (East),Tapovan Housing Complex
6845,"Tara Niwas CHSL, Deshpande Road - Thane (West)","Shop No. 5, Tara Niwas CHSL, Bajiprabhu Deshpande Road, Naupada, Thane (West)",19.191658,72.96987,Thane,Maharashtra,46300,03-05-2022 09:01,03-05-2022 09:01,400602,India,Thane (West),BSMS Sangram School
6846,"Maheshwar Niketan, Kolbad Naka - Thane (West)","Shop No. 8, Maheshwar Niketan CHSL, 126/ 199 Comrade Rajaram Vishnu Rawool Marg, Kolbad Naka, Uthalsar, Thane (West)",19.203629,72.976585,Thane,Maharashtra,46300,03-05-2022 09:01,03-05-2022 09:01,400601,India,Thane (West),Akshay Surgical & Maternity Home
6847,"Vilas Apartments, Saint Tukaram Marg - Thane (East)","Shop No. 3, Vilas Apartment - (Vilas CHSL), Sant Tukaram Road, Kopri, Daulat Nagar, Thane (East)",19.183886,72.97325,Thane,Maharashtra,46300,03-05-2022 09:01,03-05-2022 09:01,400603,India,Thane (East),Phataka Bazar
6848,"Hira Moti Nagar CHSL, Hira Moti Nagar - Thane (West)","Shop No. 6, Hira Moti Nagar CHSL, Road No. 3, Hira Moti Nagar, Kisan Nagar - 1, Wagle Estate, Thane (West)",19.187735,72.95223,Thane,Maharashtra,46300,03-05-2022 09:01,03-05-2022 09:01,400604,India,Thane (West),Brahma Kumaris
6849,"Marigold CHSL, Quarry Road - Bhandup (West)","Shop No. 8, Marigold CHSL, Quarry Road, Behind Mangatram Petrol Pump, Ganesh Nagar, Bhandup (West)",19.139685,72.930275,Mumbai,Maharashtra,46300,03-05-2022 09:01,03-05-2022 09:01,400078,India,Bhandup (West),Jai Hind Oil Mill Company
6850,"Satya Ashish Building, Naupada - Thane (West)","Shop No. 1, Building No. A, Satya Ashish Building, Ram Maruti Road, Veer Savarkar Marg, Naupada, Thane (West)",19.195368,72.97239,Thane,Maharashtra,46300,03-05-2022 09:01,03-05-2022 09:01,400602,India,Thane (West),Sopan Society
6851,"Himalaya Society, Asalpha - Ghatkopar (West)","Shop No. 4, C - Wing, Manali CHSL, Manali Apartment Building No. 1, Himalaya Society, Milind Nagar, Ghatkopar (West)",19.094934,72.89245,Mumbai,Maharashtra,46300,03-05-2022 09:01,03-05-2022 09:01,400084,India,Ghatkopar (West),Sungrace Public School
6852,Maneklal Estate - Ghatkopar (West),"Shop No. 8, The Ghatkopar Navratna Premises CHSL, Plot No. 22-23, Maneklal Estate, L B S Marg, Ghatkopar (West)",19.090267,72.90248,Mumbai,Maharashtra,46300,03-05-2022 09:01,03-05-2022 09:01,400086,India,Ghatkopar (West),Kotak Bank ATM
6853,Gopal Bhavan Bus Stop - Ghatkopar (West),"Shop No. 2, Kanta Smruti CHSL, Khara Wadi, L B S Marg, Ghatkopar (West)",19.090689,72.90973,Mumbai,Maharashtra,46300,03-05-2022 09:01,03-05-2022 09:01,400086,India,Ghatkopar (West),South Indian Bank
6854,Garden Lane - Ghatkopar (West),"Shop No. 6 , Ground Floor, Jayshankar Premises Co. Op. Housing Society Ltd, Plot No. 5 , Sanghani Estate, Ghatkopar (West)",19.096256,72.91227,Mumbai,Maharashtra,46300,03-05-2022 09:01,03-05-2022 09:01,400086,India,Ghatkopar (West),Sanghani Sthanakwasi Jain Upashray
6855,"Rose Garden, 40 Feet Road - Santacruz (East)","Rose Garden Building, Naginwadi, 40 Feet D P Road, Off. Vakola Pipeline Road, Santacruz (East)",19.081648,72.85302,Mumbai,Maharashtra,46300,03-05-2022 09:01,03-05-2022 09:01,400055,India,Santacruz (East),Gold Coin Apartments
6856,"Sagar Tower CHSL, Gautam Nagar, Jogeshwari - (West)","Shop No. 7, A-Wing, Sagar Tower CHSL, Aqsa Masjid Lane, Cross to S.V Road, Jogeshwari (West)",19.141829,72.841896,Mumbai,Maharashtra,46300,03-05-2022 09:01,03-05-2022 09:01,400102,India,Jogeshwari (West),Oshiwara Post Office
6857,"Building No. 48, Nehru Nagar - Kurla (East)","Shop No. 3, Building No 48, Samapda Co-operative Housing Society Limited, Kedarnath Mandir Marg, Nehru Nagar, Kurla (East)",19.061357,72.88149,Mumbai,Maharashtra,46300,03-05-2022 09:01,03-05-2022 09:01,400024,India,Kurla (East),Chhatrapati Shivaji Kridangan
6858,"Akar Park CHSL, Charai, Thane - (West)","Shop No. 2, Akar Park CHSL, G.B.Marg, Charai, Thane (West)",19.19627,72.97423,Thane,Maharashtra,46300,03-05-2022 09:01,03-05-2022 09:01,400601,India,Thane (West),St John Ambulance First Aid Training
6859,"Sheeljeet CHSL, Natwar Nagar, Jogeshwari - (East)","Shop No. 5, Sheeljeet CHSL, Natwar Nagar Road No. 5, Jogeshwari (East)",19.12885,72.853775,Mumbai,Maharashtra,46300,03-05-2022 09:01,03-05-2022 09:01,400060,India,Jogeshwari (East),Sahyadri Colony
6860,"Kamathe House, Naupada - Thane (West)","Shop No. 8 & 9, Kamathe House, Maharshi Karve Road, Thane (West)",19.191347,72.973274,Thane,Maharashtra,46300,03-05-2022 09:01,03-05-2022 09:01,400602,India,Thane (West),New English School
6861,"Gautam Arcade CHSL, Chendani Village, Thane - (East)","Shop No. 11, Gautam Arcade CHSL, Harishchandra Raut Marg, Daulat Nagar, Thane (East)",19.182737,72.97641,Thane,Maharashtra,46300,03-05-2022 09:01,03-05-2022 09:01,400603,India,Thane (East),Maharaja Agrasen Chowk
6862,"Suryoday CHSL, Saamana Press - Prabhadevi","A-Wing, Suryoday Co-operative Housing Society Limited, Dainik Saamana Marg, Nagu Sayaji Wadi, Prabhadevi, Dadar (West)",19.010576,72.82972,Mumbai,Maharashtra,46300,03-05-2022 09:01,03-05-2022 09:01,400025,India,Dadar (West),Saamana Press
6863,N M Joshi Marg (Delisle Road) - Lower Parel (West),"Shop No. B-18, Orbit Grand, N. M. Joshi Marg, Delisle Road, Lower Parel (West)",19.007805,72.83096,Mumbai,Maharashtra,46300,03-05-2022 09:01,03-05-2022 09:01,400013,India,Lower Parel (West),Parel S. T. Depot
6864,"Aloka Building, Gyan Mandir Road - Dadar (West)","Shop No. S3, Aloka Building, 39 Gyan Mandir Road, Dadar (West)",19.021564,72.83823,Mumbai,Maharashtra,46300,03-05-2022 09:01,03-05-2022 09:01,400028,India,Dadar (West),Navneet Jain Health Centre
6865,"Neha Galaxy, Sayani Road - Dadar (West)","Shop No. 5, Neha Galaxy, Sayani Road, Prabhadevi, Dadar (West)",19.013288,72.83124,Mumbai,Maharashtra,46300,03-05-2022 09:01,03-05-2022 09:01,400025,India,Dadar (West),Ravindra Natya Mandir
6866,"SIES College, Sindhi Colony - Sion","Shop No. 15/A/1/2, The New Sion Co-operative Housing Society Limited, Swami Vallabhdas Marg, Road No. 24, Sindhi Colony, Sion",19.04148,72.86085,Mumbai,Maharashtra,46300,03-05-2022 09:01,03-05-2022 09:01,400022,India,Sion,SIES College
6867,"Sagar Apartments, V N Purav Marg - Sion","Unit No. 1, The Sagar Apartment Co-operative Housing Society, Bhakti Dham Mandir Road, Samarth Nagar, Chunabhatti, Sion",19.053303,72.87747,Mumbai,Maharashtra,46300,03-05-2022 09:01,03-05-2022 09:01,400022,India,Sion,Samarth Nagar
6868,"Shree Mangal CHS, Bhoiwada - Parel","Shop No. A/1, Shree Mangal Co-operative Housing Society, G D Ambekar Marg, Parel Bhoiwada, Parel",19.006193,72.84672,Mumbai,Maharashtra,46300,03-05-2022 09:01,03-05-2022 09:01,400012,India,Parel,"Sun Tower, Mono Rail Pillar No. 32"
6869,"Amey CHS, Ganesh Talkies - Lalbaug","Shop No.8, Amey Housing Society, Sane Guruji Rd, Gundecha Garden, Chinchpokli (East) , Lal Baugh",18.989992,72.83499,Mumbai,Maharashtra,46300,03-05-2022 09:01,03-05-2022 09:01,400012,India,Lal Baugh,Gundecha Garden
6870,"Patel Wadi Chawl, G D Ambekar Marg - Parel","Shop No. 14, B Wing, Sale Building, Patelwadi Building, G. D. Ambekar Marg, Parel",18.99938,72.84604,Mumbai,Maharashtra,46300,03-05-2022 09:01,03-05-2022 09:01,400012,India,Parel,JBCN International School
6871,"Oriental Arcade, Ambedkar Road - Parel","Shop No.A-1, Oriental Arcade (Akolawala Building), Building No. 48 & No. 50 - 58, Dr. Babasaheb Ambedkar Road, Parel",18.987545,72.835526,Mumbai,Maharashtra,46300,03-05-2022 09:01,03-05-2022 09:01,400012,India,Parel,Voltas House
6872,"Sapna CHSL, Agar Bazaar - Dadar (West)","Shop No. 3, Sapna Co-operative Housing Society Limited, S. K. Bole Marg, Agar Bazar, Dadar (West)",19.018854,72.8344,Mumbai,Maharashtra,46300,03-05-2022 09:01,03-05-2022 09:01,400028,India,Dadar (West),Bhaskar Gawand Maruti Mandir
6873,"Abhinandan CHSL, Dr. Babasaheb Ambedkar Road - Parel","Shop No. 2, The Abhinandan CHSL, Dr. Babasaheb Ambedkar Road, Gautam Nagar, Parel",19.008003,72.84102,Mumbai,Maharashtra,46300,03-05-2022 09:01,03-05-2022 09:01,400012,India,Parel,RBI Officers Apartments
6874,"Dimple CHSL, Jerbai Wadia Road, Parel - (East)","Shop No. 6, Dimple CHSL, Jerbai Wadia Road, Parel (East)",19.005114,72.85032,Mumbai,Maharashtra,46300,03-05-2022 09:01,03-05-2022 09:01,400012,India,Parel (East),L&T Crescent Bay
6875,"Shakuntala Krupa CHSL, Naupada, Thane - (West)","Shop No. 9, Shakuntala Krupa CHSL, Dharamveer Nagar, Mental Hospital Road, Thane (West)",19.182873,72.96117,Thane,Maharashtra,46300,03-05-2022 09:01,03-05-2022 09:01,400604,India,Thane (West),Mental Hospital
6876,"Swastik Regalia, Waghbil, Thane - (West)","Shop No. 9, Building No. T-5, R-Plazzia CHSL, Swastik Regalia Housing Complex, Waghbil, Ghodbunder Road, Thane (West)",19.26298,72.97701,Thane,Maharashtra,46300,03-05-2022 09:01,03-05-2022 09:01,400615,India,Thane (West),GP Parsik Sahakari Bank Ltd
6877,"DLH Udaaka Heights, Siddharth Nagar, Goregaon - (West)","Shop No. 1, B Wing, DLH Udaaka Heights, Siddharth Nagar, Goregaon (West)",19.15263,72.843864,Mumbai,Maharashtra,46300,03-05-2022 09:01,03-05-2022 09:01,400104,India,Goregaon (West),BEST Colony Road
6878,"Sahyadri Building, Kavesar, Thane - (West)","Shop No. 14, A Wing, Sahyadri CHSL, Sanghvi Hills Complex, Off. Ghodbunder Road, Thane (West)",19.258492,72.96364,Thane,Maharashtra,46300,03-05-2022 09:01,03-05-2022 09:01,400615,India,Thane (West),Sanghvi Hills
6879,"Ambaji Darshan Building, Nirmal Nagar - Bhandup (West)","Shop No. 2, Ambaji Darshan Building, Bhattipada Cross Road, Bhandup (West)",19.14824,72.93502,Mumbai,Maharashtra,46300,03-05-2022 09:01,03-05-2022 09:01,400078,India,Bhandup (West),N.E.S. High School
6880,"Ashok Nagar Balkum CHSL, Balkum, Thane - (West)","Shop No. 12, Building No. 11, Ashok Nagar Balkum CHSL, Ashok Nagar Complex, Balkum, Thane (West)",19.221703,72.99383,Thane,Maharashtra,46300,03-05-2022 09:01,03-05-2022 09:01,400608,India,Thane (West),Ashok Nagar
6881,"River Dale Tower, Marol, Andheri - (East)","Shop No. 8 & 9, River Dale Tower, Opp. Ashok Nagar, Marol Military Road, Andheri (East)",19.114895,72.887314,Mumbai,Maharashtra,46300,03-05-2022 09:01,03-05-2022 09:01,400059,India,Andheri (East),Ashok Nagar Society
6882,"Sneh Bungalow, Wagle Estate, Thane - (West)"," Shop No. 1 & 2, Sneh Bungalow , Plot No.9, Sector 4, Shree Nagar, Wagle Estate, Thane (West)",19.190372,72.94384,Thane,Maharashtra,46300,03-05-2022 09:01,03-05-2022 09:01,400604,India,Thane (West),Bank Of Maharashtra
6883,"Nirmala Niwas, Dr. Baba Saheb Ambedkar Rd, Parel - (East)","Shop No. 1, Nirmala Niwas, Block - A, Aaimai Mervanji Street, Dr. Ambedkar Road, Parel (East)",19.001652,72.839386,Mumbai,Maharashtra,46300,03-05-2022 09:01,03-05-2022 09:01,400012,India,Parel (East),Shri Adishwar Shwetamber Jain Temple
6884,"Eucalyptus Building, Majiwada, Thane - (West)","Shop No. 2, Eucalyptus Building, Majiwada, Ghodbunder Road, Thane (West)",19.22742,72.97672,Thane,Maharashtra,46300,03-05-2022 09:01,03-05-2022 09:01,400607,India,Thane (West),Hyde Park
6885,"Kanyakumari CHSL, Majiwada, Thane - (West)","Shop No. 4 & 5, Building No. 58/A, Kanyakumari CHSL, Vrindavan Complex, Majiwada, Thane (West)",19.210041,72.9845,Thane,Maharashtra,46300,03-05-2022 09:01,03-05-2022 09:01,400601,India,Thane (West),Thane MSEDCL Office
6886,"Cosmos Arcade Building, Kolshet, Thane - (West)"," Shop No. 6A, A Wing, Cosmos Arcade Building , Opposite Brahmand Phase 4, Kolshet, Thane (West)",19.241735,72.98285,Thane,Maharashtra,46300,03-05-2022 09:01,03-05-2022 09:01,400607,India,Thane (West),Brahmand Vatika
6887,"Rock Castle, Hiranandani Estate, Thane - (West)","Shop No. 2, A Wing, Building No. 1 Rock Castle, Platinum Heritage, Behind Hiranandani Hospital, Kolshet, Ghodbunder Road, Thane (West)",19.25116,72.98288,Thane,Maharashtra,46300,03-05-2022 09:01,03-05-2022 09:01,400602,India,Thane (West),Hiranandani Estate
6888,"Silver Birch CHSL, Veena Nagar, Mulund - (West)","Shop No. 22, Silver Birch CHSL,  Vasant Gardens, Swapna Nagari, Mulund (West)",19.180847,72.93905,Mumbai,Maharashtra,46300,03-05-2022 09:01,03-05-2022 09:01,400080,India,Mulund (West),Sardar Pratapsingh Garden
6889,"Sanghvi Evana, Ganpatrao Kadam Marg, Lower Parel - (West)","Shop No. 4, Building No. 321-325, 325-325B, B Wing, Sanghvi Evana, Worli Naka, Lower Parel (West)",18.99832,72.82303,Mumbai,Maharashtra,46300,03-05-2022 09:01,03-05-2022 09:01,400013,India,Lower Parel (West),Shree Ram Mill
6890,"Dosti Aster, Dosti Acres - Wadala (East)","Shop No. 9, Dosti Aster (Dosti Acres) CHSL, Plot C. S. No. 1/344, Antop Hill Road, Wadala (East)",19.023424,72.86587,Mumbai,Maharashtra,46300,03-05-2022 09:01,03-05-2022 09:01,400037,India,Wadala (East),Dosti Acres
6891,"Sumit Abode II, T H Kataria Road - Mahim (West)","Shop No. 4, Sumit Abode II, Plot No. 218 & 222 TPS III, Junction of Sitaram Keer Marg & Tarkandas H Kataria Road, Mahim (West)",19.031532,72.84276,Mumbai,Maharashtra,46300,03-05-2022 09:01,03-05-2022 09:01,400016,India,Mahim (West),Joshi Wadi
6892,Mori Road - Mahim (West),"Shop No. 2, Mahim Pushpa Kunj Flat Owners Co-Operative Housing Society Limited, 768, Mori Road, Mahim (West)",19.043139,72.84156,Mumbai,Maharashtra,46300,03-05-2022 09:01,03-05-2022 09:01,400016,India,Mahim (West),Mahim Bus Depot
6893,"Shantiniketan, L J Road - Mahim (West)","Shop No. 6, Shantiniketan, Rabindra Co-Operative Housing Society Limited, 19, L. J. Road, Mahim (West)",19.040436,72.84104,Mumbai,Maharashtra,46300,03-05-2022 09:01,03-05-2022 09:01,400016,India,Mahim (West),Mahim Church
6894,"Crystal Colony, Sonawala Agiary Lane - Mahim (West)","Shop No. B-13, Mahim Crystaline Premise Co-operative Society Limited, Crystal Colony, Sonawala Agiary Lane, Mahim (West)",19.040663,72.843216,Mumbai,Maharashtra,46300,03-05-2022 09:01,03-05-2022 09:01,400016,India,Mahim (West),Crystal Colony
6895,"Arabian Apartments, Pitamber Lane - Mahim (West)","Shop No. 2, Ground Floor, Arabian Apartments, 17, Pitamber Lane, Bhagoji Keer Marg, New Dinkar Co Operative Housing Society, Mahim (West)",19.03778,72.84527,Mumbai,Maharashtra,46300,03-05-2022 09:01,03-05-2022 09:01,400016,India,Mahim (West),Shri Vithal Desai Park
6896,"Indira Nagar CHS, Jaishankar Yagnik Road - Sion","Shop No. C-3, C Wing, Indira Nagar CHS, Jaishankar Yagnik Road, Sion Koliwada, Sion",19.036795,72.86447,Mumbai,Maharashtra,46300,03-05-2022 09:01,03-05-2022 09:01,400037,India,Sion,Ganesh Temple
6897,"Jamnadas Chawl, T J Road - Sewri (West)","Shop No. 2 & 3, Jamnadas Prabhudas Chawl, Plot No. 115, Tokershi Jivraj Road, Sewri (West)",18.991531,72.84765,Mumbai,Maharashtra,46300,03-05-2022 09:01,03-05-2022 09:01,400015,India,Sewri (West),Bhagwan Adeshwarji Jain Mandir
6898,"Akshay Apartment, Mumbai Pune Road, Kalwa - (West)","Shop No. 5, Akshay Apartment, Mumbai Pune Road, Kalwa (West)",19.19662,72.98987,Thane,Maharashtra,46300,03-05-2022 09:01,03-05-2022 09:01,400605,India,Kalwa (West),Aditya Hospital
6899,"New Moonlight CHSL, Sir. M.V.Road, Andheri - (East)","Shop No. 11, New Moonlight CHSL, Sir. M. V. Road, Andheri (East)",19.118263,72.852936,Mumbai,Maharashtra,46300,03-05-2022 09:01,03-05-2022 09:01,400069,India,Andheri (East),Little Flower High School
6900,"Tropical Lagoon Phase 3, Kavesar, Thane - (West)","Shop No. 19, Morning Glory, Tropical Lagoon Tower No. 5, Tropical Lagoon Phase 3, Kavesar, Off. Ghodbunder Road , Thane (West)",19.265554,72.970215,Thane,Maharashtra,46300,03-05-2022 09:01,03-05-2022 09:01,400615,India,Thane (West),Anand Nagar Bus Depot
6901,"Amrut Dham CHSL, Manisha Nagar, Kalwa - (West)","Shop No. 13, Amrut Dham CHSL, Manisha Nagar, Mumbai-Pune Road, Kalwa (West)",19.19784,72.98923,Thane,Maharashtra,46300,03-05-2022 09:01,03-05-2022 09:01,400605,India,Kalwa (West),Manisha Nagar 
6902,"Olive Apartments, Bhayandarpada - Thane (West)","Shop No.2, B Wing, Building No.1, Olive Apartments, Ghodbunder Road, Bhayandarpada, Thane (West)",19.283314,72.95315,Thane,Maharashtra,46300,03-05-2022 09:01,03-05-2022 09:01,400615,India,Thane (West),Lodha Splendora
6903,"Ashrafi Mahal, Belgrami Naka -  Kurla (West)","Shop No. 3, Ashrafi Mahal CHSL, Plot No 154, L B S Marg, Belgrami Naka, Kurla (West)",19.0662,72.87458,Mumbai,Maharashtra,46300,03-05-2022 09:01,03-05-2022 09:01,400070,India,Kurla (West),Kokan Bank
6904,"Bavan Chawl, Rambhau Bhogle Marg - Cotton Green","Shop No. 8 & 9, Jodiyawala Estate, New Bavan Chawl No. 42, Rambhau Bhogle Marg, Fer Bunder, Cotton Green, Byculla (East), Cotton Green",18.985077,72.84115,Mumbai,Maharashtra,46300,03-05-2022 09:01,03-05-2022 09:01,400033,India,Cotton Green,MHADA Colony
6905,"Laxmi Residency, N M Joshi Marg - Byculla (West)","Shop No. E-7, Shree Laxmi Residency, N M Joshi Marg, Opposite Byculla Station Byculla West, Mazgaon, Byculla (West)",18.978497,72.83194,Mumbai,Maharashtra,46300,03-05-2022 09:01,03-05-2022 09:01,400027,India,Byculla (West),Byculla Railway Station (West)
6906,"Acharia House, Gol Masjid, Marine lines","Shop No. 1, Acharia House, Building No. 80/86, Anandilal Podar Marg, Marine Lines",18.942919,72.827225,Mumbai,Maharashtra,46300,03-05-2022 09:01,03-05-2022 09:01,400002,India,Marine Lines,Gol Masjid 
6907,"Shree Mangal Srushti CHSL, Neelam Nagar - Mulund (East)","Shop No. 9, 10 & 11, A Wing, Shree Mangal Srushti CHSL, Neelam Nagar, S.P.Gujar Marg, Gavanpada, Mulund (East)",19.174156,72.9625,Mumbai,Maharashtra,46300,03-05-2022 09:01,03-05-2022 09:01,400081,India,Mulund (East),Tarun Utkarsh Mandal Ground
6908,"Matoshri Kunj CHSL, 90 Feet Road - Bhandup (East)","Shop No. 1, Matoshri Kunj CHSL, 90 Feet Road, Bhandup (East)",19.150337,72.9488,Mumbai,Maharashtra,46300,03-05-2022 09:01,03-05-2022 09:01,400042,India,Bhandup (East),RCF Colony
6909,"Rain Art, Vartak Nagar, Thane - (West)","Shop No.G002, A Wing, Building No. 32, Rain Art, Vartak Nagar, Majiwada, Thane (West)",19.214663,72.96135,Thane,Maharashtra,46300,03-05-2022 09:01,03-05-2022 09:01,400606,India,Thane (West),Shree Ayyappa Temple
6910,"Sanghvi Heights, Shaikh Mistry Road - Wadala (East)","Shop No. 5 & 6, Upper Ground Floor, A-Wing, Sanghvi Heights, Shaikh Mistry Road, Antop Hill, Wadala (East)",19.020706,72.86456,Mumbai,Maharashtra,46300,03-05-2022 09:01,03-05-2022 09:01,400037,India,"Antop Hill, Wadala (East)",Opp Barkat Ali Dargah
6911,"Ganpati Bhuvan, Naigaon - Dadar (East)","Shop No. 1, 2, 3 & 4, Ganpati Bhuvan, Plot No 65, BJ Devrukhkar Road, Naigaon, Dadar (East)",19.01038,72.84469,Mumbai,Maharashtra,46300,03-05-2022 09:01,03-05-2022 09:01,400014,India,Dadar (East),Naigaon Police Line
6912,"Goyal Plaza, Carter Road - Borivali (East)","Shop No. 9, Goyal Plaza CHSL, Main Carter Road (Kasturba Road), Borivali (East)",19.229658,72.86112,Mumbai,Maharashtra,46300,03-05-2022 09:01,03-05-2022 09:01,400066,India,Borivali (East),ICICI Bank
6913,"Poonam Darshan, C Wing, Poonam Nagar - Andheri (East)","Shop No. 7, Building No. C/6, Poonam Darshan CHSL, Poonam Nagar, Vallabhai Patel Road, Andheri (East)",19.136478,72.87012,Mumbai,Maharashtra,46300,03-05-2022 09:01,03-05-2022 09:01,400093,India,Andheri (East),Poonam Nagar
6914,"Manthan Darshi, B Wing, Datta Mandir Road - Malad (East)","Shop No. 1, B-Wing, Manthan Darshi Complex CHSL, Near Datta Mandir Road, Malad (East)",19.19205,72.85663,Mumbai,Maharashtra,46300,03-05-2022 09:01,03-05-2022 09:01,400097,India,Malad (East),Classic Restaurant
6915,"Shiv Shakti Complex, Vrindavan Road - Dahisar (East)","Shop No. 10, B-Wing, Shiv Shakti Complex, Shiv Shakti A & B Wing CHSL, Vrindavan Road, Off. S V Road, Dahisar (East)",19.245749,72.8617,Mumbai,Maharashtra,46300,03-05-2022 09:01,03-05-2022 09:01,400068,India,Dahisar (East),"Office Of Deputy Commissioner Of Police, Dahisar"
6916,"Radha Raman CHSL, Kandarpada - Dahisar (West)","Shop No. 4 & 5, Radha-Raman Apartment (Radha Raman CHSL), Waman Rao Bhoir Road, Kandarpada, Dahisar (West)",19.256721,72.85562,Mumbai,Maharashtra,46300,03-05-2022 09:01,03-05-2022 09:01,400068,India,Dahisar (West),Shree Sai Baba Maidan
6917,"Park Unique CHSL, Road No. 3 - Dahisar (East)","Shop No. 1, A - Wing, Park Unique CHSL, Road No. 3, Sudhindra Nagar, Dahisar (East)",19.259394,72.86061,Mumbai,Maharashtra,46300,03-05-2022 09:01,03-05-2022 09:01,400068,India,Dahisar (East),Dr. Baba Amte Maidan
6918,"Amrat Building, Jaywant Sawant Road - Dahisar (West)","Shop No. 5, Amrat Building, Jaywant Sawant Road, Near Rustomjee Complex, Dahisar (West)",19.240896,72.858444,Mumbai,Maharashtra,46300,03-05-2022 09:01,03-05-2022 09:01,400068,India,Dahisar (West),Rustomjee International School
6919,"Unity Heights, S. V. Road - Malad (West)","Shop No. 10/11, B Wing, Unity Heights, S.V. Road, Nadiadwala Colony Road No. 2, Malad (West)",19.179626,72.84666,Mumbai,Maharashtra,46300,03-05-2022 09:01,03-05-2022 09:01,400064,India,Malad (West),SBI Bank
6920,"Trimurti Kripa CHSL, Eksar Road - Borivali (West)","Shop No. 1, Building No II, Trimurti Kripa Co-operative Housing Society Limited, CTS No. 317A, 317B & 318, Eksar Road, Yogi Nagar Corner, Borivali (West)",19.23503,72.84621,Mumbai,Maharashtra,46300,03-05-2022 09:01,03-05-2022 09:01,400092,India,Borivali (West),Sushrut Hospital
6921,"Creek View CHSL, Yogi Nagar - Borivali (West)","Shop No. 9, Creek View Co-operative Housing Society Limited, E-20, Yogi Nagar, Borivali (West)",19.23489,72.84186,Mumbai,Maharashtra,46300,03-05-2022 09:01,03-05-2022 09:01,400091,India,Borivali (West),Aura Restaurant
6922,"Ankur CHSL, Laxman Mhatre Road - Borivali (West)","Shop No. 5, Ankur Co-operative Housing Society Limited, Laxman Mhatre Road, Mandapeshwar, Borivali (West)",19.247385,72.854515,Mumbai,Maharashtra,46300,03-05-2022 09:01,03-05-2022 09:01,400103,India,Borivali (West),Mary Immaculate School
6923,"Eskay Apartments, Sai Baba Nagar - Borivali (West)","Shop No. 8, Eskay Apartments, Bldg. No. 14, Eskay Geejay CHSL, Sai Baba Nagar, Satya Nagar Road, Borivali (West)",19.218048,72.844955,Mumbai,Maharashtra,46300,03-05-2022 09:01,03-05-2022 09:01,400092,India,Borivali (West),Chacha Nehru Udyan
6924,"Gobind Chhaya CHSL, Prem Nagar - Borivali (West)","Shop No. S-9, Building No. 7, Gobind Chhaya CHSL, Mandpeshwar Civic Federation Udyan Marg, Prem Nagar, Borivali (West)",19.236399,72.853424,Mumbai,Maharashtra,46300,03-05-2022 09:01,03-05-2022 09:01,400092,India,Borivali (West),Mandpeshwar Civic Federation Gymkhana
6925,"Siddhivinayak Plaza, Shimpoli Road - Borivali (West)","Shop No. 10, Siddhivinayak Plaza CHSL, Shimpoli Road, Chikuwadi, Borivali (West)",19.220352,72.841774,Mumbai,Maharashtra,46300,03-05-2022 09:01,03-05-2022 09:01,400092,India,Borivali (West),Shri Siddhi Sai Shraddha Mandir
6926,"Green Woods CHSL, Chikuwadi - Borivali (West)","Shop No. 6, D-Green Woods CHSL, Chikuwadi, Shimpoli Linking Road, Borivali (West)",19.222687,72.841156,Mumbai,Maharashtra,46300,03-05-2022 09:01,03-05-2022 09:01,400092,India,Borivali (West),Shwetamber Jain Temple
6927,"Nikita Apartment - I, Shimpoli Cross Lane - Borivali (West)","Shop No. 5, Nikita Apartment (New Nikita CHSL), Shimpoli Cross Lane, L Bhandari Marg, Shimpoli, Borivali (West)",19.222742,72.84225,Mumbai,Maharashtra,46300,03-05-2022 09:01,03-05-2022 09:01,400092,India,Borivali (West),Shimpoli Telephone Exchange
6928,"Anand Bhavan, S V P Road - Borivali (West)","Shop No. 3, Anand Bhavan Apartment Owners Association, S V P Road, Mount Poinsur, Borivali (West)",19.242138,72.85418,Mumbai,Maharashtra,46300,03-05-2022 09:01,03-05-2022 09:01,400103,India,Borivali (West),Dena Bank - Mount Poinsur Branch
6929,"Aastha CHSL, S V Road - Borivali (West)","Shop No. S04, Plot No. 4, Aastha CHSL, Shri Punit Nagar, S V Road, Borivali (West)",19.216818,72.85102,Mumbai,Maharashtra,46300,03-05-2022 09:01,03-05-2022 09:01,400092,India,Borivali (West),Oriental Bank of Commerce
6930,"Ganesh Siddhi - 2, Vazira Naka - Borivali (West)","Shop No. 11, Ganesh Siddhi - 2 CHSL, Ram Mandir Road, Babai Naka, Borivali (West)",19.225958,72.84471,Mumbai,Maharashtra,46300,03-05-2022 09:01,03-05-2022 09:01,400092,India,Borivali (West),Janaki Mandir Chowk
6931,"Sai-Darshan CHSL, Ram Baug Lane - Borivali (West)","Shop No. 6 - A/B, Wing C, Shree Ram Sai-Darshan CHSL, Ram Baug Lane, Off S. V. Road, Dattani Nagar, Borivali (West)",19.216946,72.85262,Mumbai,Maharashtra,46300,03-05-2022 09:01,03-05-2022 09:01,400092,India,Borivali (West),Himalaya High School
6932,"Bahubali Towers, Desai Seth Nagar - Borivali (West)","Shop No. 10, B-Wing, Bahubali Towers CHSL, 14/19, Desai Seth Nagar, Sai Baba Mandir Marg, Off. S. V. Road, Borivali (West)",19.216314,72.8483,Mumbai,Maharashtra,46300,03-05-2022 09:01,03-05-2022 09:01,400092,India,Borivali (West),HDFC Bank
6933,"Shanti Apartments, Gorai 2 - Borivali (West)","Shop No. 4, 5 & 6, Shanti Apartments - Gorai Indira CHSL, Plot No. 77, RSC Road No. 48, Gorai 2, Borivali (West)",19.229254,72.82262,Mumbai,Maharashtra,46300,03-05-2022 09:01,03-05-2022 09:01,400091,India,Borivali (West),Pepsi Ground
6934,"Royal Tower, I C Colony Road - Borivali (West)","Shop No. 2, Royal Tower CHSL, I C Colony Road, I C Colony, Borivali (West)",19.245684,72.849495,Mumbai,Maharashtra,46300,03-05-2022 09:01,03-05-2022 09:01,400103,India,Borivali (West),Corporation Bank
6935,"Vasant Marvel, Magathane Exchange - Borivali (East)","Shop No. SH03/ SH04, Vasant Marvel CHSL, Magathane Service Road, Off. Western Express Highway, Borivali (East)",19.2152,72.86717,Mumbai,Maharashtra,46300,03-05-2022 09:01,03-05-2022 09:01,400066,India,Borivali (East),Café Coffee Day
6936,"Spring Palm, Military Road - Andheri (East)","Shop No. 1, Ground Floor, Spring Palm CHSL, Military Road, Marol, Andheri (East)",19.12061,72.88522,Mumbai,Maharashtra,46300,03-05-2022 09:01,03-05-2022 09:01,400059,India,Andheri (East),PNB Officers Residence Building
6937,"Astor Place, EPFO Office - Kandivali (West)","SH-02, Astor Place, Charkop Chetan Co-operative Housing Society Limited, Plot No. 235, R D P 6, Charkop, Kandivali (West)",19.215233,72.831375,Mumbai,Maharashtra,46300,03-05-2022 09:01,03-05-2022 09:01,400067,India,Kandivali (West),PF Office
6938,"Rock Enclave, Hindustan Naka - Kandivali (West)","SD-20, Rock Enclave Co-operative Housing Society Limited, Near Sahyadri Nagar, Kandivali (West)",19.210443,72.82997,Mumbai,Maharashtra,46300,03-05-2022 09:01,03-05-2022 09:01,400067,India,Kandivali (West),Yes Bank
6939,"Vasant Krupa, Goandevi Road - Kandivali (West)","SH-01, Vasant Krupa Co-operative Housing Society Limited, Goandevi Road, Poisar, Kandivali (West)",19.213982,72.85192,Mumbai,Maharashtra,46300,03-05-2022 09:01,03-05-2022 09:01,400067,India,Kandivali (West),Poisar Bus Depot
6940,"Suraj Apartments, M G Road - Kandivali (West)","Shop No. 7, Wing A-2, Suraj Apartments, M G Road, Charkop Village, Kandivali (West)",19.209072,72.82035,Mumbai,Maharashtra,46300,03-05-2022 09:01,03-05-2022 09:01,400067,India,Kandivali (West),Charkop Village
6941,"Mhatre Plaza CHSL, Dahanukar Wadi - Kandivali (West)","Shop No 27/A, Wing-C, Mhatre Plaza CHSL, Mahatma Gandhi Road, Dahanukar Wadi, Shankar Pada, Kandivali (West)",19.207087,72.83635,Mumbai,Maharashtra,46300,03-05-2022 09:01,03-05-2022 09:01,400067,India,Kandivali (West),Shubh Shanti Complex
6942,"Essbel CHSL, Lokhandwala Township - Kandivali (East)","Shop No. 01, Akurli Essbel CHSL, Plot No. 17, RDP II, Lokhandwala Township, Akurli Road, Kandivali (East)",19.194485,72.87532,Mumbai,Maharashtra,46300,03-05-2022 09:01,03-05-2022 09:01,400101,India,Kandivali (East),Anudatta School & Junior College
6943,"Suryakiran CHS, Charkop Sector 6 - Kandivali (West)","Shop No. 1, Suryakiran CHSL, Plot No. 194, R D P Road No. 6, Sector 6, Charkop, Kandivali (West)",19.215595,72.8355,Mumbai,Maharashtra,46300,03-05-2022 09:01,03-05-2022 09:01,400067,India,Kandivali (West),Charkop BPCL Petrol Pump
6944,"Burhani Heritage, M G Road - Kandivali (West)","Shop No. 5, Burhani Heritage CHSL, M G Road, Bohra Colony, Kandivali (West)",19.205008,72.841156,Mumbai,Maharashtra,46300,03-05-2022 09:01,03-05-2022 09:01,400067,India,Kandivali (West),Dawoodi Bohra Masjid
6945,"Saraf Choudhari Nagar CHSL, Thakur Complex - Kandivali (East)","Shop No. 62, Saraf Choudhari Nagar CHSL (No. 13), A/6, 51-53, Saraf Choudhari Nagar, Western Express Highway, Thakur Complex, Kandivali (East)",19.209225,72.86302,Mumbai,Maharashtra,46300,03-05-2022 09:01,03-05-2022 09:01,400101,India,Kandivali (East),Saraf Choudhari Nagar Bus Stop
6946,"Shiv Prasad CHSL, Dahanukar Wadi - Kandivali (West)","Shop No. 1, Shiv Prasad CHSL, Plot No. A/3, Datta Mandir Road, Dahanukar Wadi, Kandivali (West)",19.208721,72.8371,Mumbai,Maharashtra,46300,03-05-2022 09:01,03-05-2022 09:01,400067,India,Kandivali (West),Dr. Chirag Mehta's Health Center
6947,"Shreeji Palace, S V Road - Kandivali (West)","Shop No. 4, Shreeji Palace CHSL, Parekh Gully, Bhagat Colony, Kandivali (West)",19.2017,72.848915,Mumbai,Maharashtra,46300,03-05-2022 09:01,03-05-2022 09:01,400067,India,Kandivali (West),LIC of India
6948,"Alkapuri CHSL, Aarya Chanakya Nagar - Kandivali (East)","Shop No. 6, Alka Apartments, Alkapuri CHSL, Akruli Cross Road No. 3, Opp. Kalpataru Towers, Kandivali (East)",19.203869,72.8558,Mumbai,Maharashtra,46300,03-05-2022 09:01,03-05-2022 09:01,400101,India,Kandivali (East),Arya Chanakya Playground
6949,"Harmony CHSL, Dhanukarwadi - Kandivali (West)","Shop No. 2, 3 & 3A, Harmony CHSL, C.T.S No. 1010, 1010/1 & 1010/2, Plot No.32, Damu Anna Date Marg, Dahanukarwadi, Kandivali (West)",19.208721,72.83926,Mumbai,Maharashtra,46300,03-05-2022 09:01,03-05-2022 09:01,400067,India,Kandivali (West),St Joseph High School
6950,"Basera & Basera Annexe CHSL, Sector 10, Vashi","Shop No.4, Basera & Basera Annexe CHSL, Plot No. 11A, Sector 10, Vashi",19.083416,72.997246,Navi Mumbai,Maharashtra,46300,03-05-2022 09:01,03-05-2022 09:01,400703,India,Vashi,BAPS Swami Narayan Kala Kendra
6951,"Sai Palace, Sector 14 - Vashi","Shop No. 13, Sai Palace CHSL, Plot No.36, Sector 14, Vashi",19.082375,73.00394,Navi Mumbai,Maharashtra,46300,03-05-2022 09:01,03-05-2022 09:01,400703,India,Vashi,Vashi Gymkhana
6952,"Landmark CHSL, Sector 14 - Vashi","Shop No. 28, 29 & 30, Landmark CHSL, Sector 14, Vashi",19.08255,73.00141,Navi Mumbai,Maharashtra,46300,03-05-2022 09:01,03-05-2022 09:01,400703,India,Vashi,Gaon Devi Mandir
6953,"Sicily Park CHSL, Sector 12-B, Koperkhairane","Shop No. 21, Sicily Park CHSL, Plot No. 54, Sector No. 12-B, Koperkhairane",19.09791,73.008026,Navi Mumbai,Maharashtra,46300,03-05-2022 09:01,03-05-2022 09:01,400709,India,Koperkhairane,Corporation Bank
6954,"The Residency Apartment, Sector 2A - Koparkhairane","Shop No. 3, 4, 5, The Residency Apartment CHSL, Plot No. 62, Sector 2A, Koparkhairane",19.110804,73.00355,Navi Mumbai,Maharashtra,46300,03-05-2022 09:01,03-05-2022 09:01,400709,India,Koparkhairane,Terna College
6955,"Cosmos Habitat, Kapurbawdi - Thane (West)","Building No. 1, Exotica A-Wing, Cosmos Habitat, Old Agra Road, Kapurbawdi, Thane (West)",19.218157,72.98055,Thane,Maharashtra,46300,03-05-2022 09:01,03-05-2022 09:01,400601,India,Thane (West),Lakecity Mall
6956,"Ashley Towers CHSL, Beverly Park - Mira Road (East)","Shop No. 1 Building No. 1, Ashley Towers Co-operative Housing Society Limited, Beverly Park, Kanakia Road, Mira Road (East)",19.293388,72.8712,Mira Bhayandar,Maharashtra,46300,03-05-2022 09:01,03-05-2022 09:01,401107,India,Mira Road (East),Cinemax
6957,"Raj Classic CHSL, Village Navghar - Bhayandar (East)","Shop No.3, B-Wing, Raj Classic CHSL, Village Navghar, Annapurna Est., Bhayandar (East)",19.301094,72.869995,Mira Bhayandar,Maharashtra,46300,03-05-2022 09:01,03-05-2022 09:01,401105,India,Bhayandar (East),Shalom Medicare Hospital
6958,"Brahmacharini CHSL, Shanti Park - Mira Road (East)","Jangid Apartment, Brahmacharini CHSL, Shanti Park, Mira Road (East)",19.279942,72.86564,Mira Bhayandar,Maharashtra,46300,03-05-2022 09:01,03-05-2022 09:01,401107,India,Mira Road (East),G S Jangid Memorial School
6959,"Hubtown Gardenia Hazel CHSL, Mira Bhayandar Road - Mira Road (East)","Building No. 8, Hubtown Gardenia Hazel CHSL, Near GCC Club, Off Mira Bhayandar Road, Mira Road (East)",19.285843,72.87695,Mira Bhayandar,Maharashtra,46300,03-05-2022 09:01,03-05-2022 09:01,401107,India,Mira Road (East),Hubtown Gardenia
6960,"Antariksh CHSL, Beverly Park - Mira Road (East)","Building No. B-3, Antariksh CHSL, Beverly Park, Mira Road (East)",19.290667,72.87039,Mira Bhayandar,Maharashtra,46300,03-05-2022 09:01,03-05-2022 09:01,401107,India,Mira Road (East),Kanakia Police Station
6961,"Sai Karishma Complex, A Wing - Mira Road (East)","Shop No. 6, A-Wing, Sundaram CHSL, Sai Karishma Complex, Off. Kanakia Road, Mira Road (East)",19.297443,72.87334,Mira Bhayandar,Maharashtra,46300,03-05-2022 09:01,03-05-2022 09:01,401107,India,Mira Road (East),Divine Mercy Church
6962,"Soham CHSL, Sector 20, Airoli ","Shop No. 5, Soham CHSL, Plot No. D-16/1, Sector No. 20/D, Airoli",19.162737,72.991295,Navi Mumbai,Maharashtra,46300,03-05-2022 09:01,03-05-2022 09:01,400708,India,Airoli,Airoli Gaothan
6963,"Yashashree Apartments, Sector 16 - Airoli","Shop No. 13/14, Yashashree CHSL, Plot No. 6, Sector-16, Airoli",19.150017,72.993225,Mumbai,Maharashtra,46300,03-05-2022 09:01,03-05-2022 09:01,400708,null,Airoli,Siddhi Vinayak Shopping Complex
6964,"Shri Siddhivinayak CHSL, Sector 9, Ghansoli","Shop No. 3, Building No. B-2, Shri Siddhivinayak CHSL, Sector 9, Gharonda, Ghansoli",19.11676,72.997795,Navi Mumbai,Maharashtra,46300,03-05-2022 09:01,03-05-2022 09:01,400701,India,Ghansoli,Gharonda
6965,"Shweta Residency CHSL, Ramdev Park Road - Mira Road (East)","Building No. 1, Shweta Residency CHSL, Vagad Nagar, Ramdev Park Road, Mira Road (East)",19.296652,72.87102,Mira Bhayandar,Maharashtra,46300,03-05-2022 09:01,03-05-2022 09:01,401107,India,Mira Road (East),Ramdev Park Garden
6966,"Shanti Sagar CHSL, Station Road - Bhayandar (West)","A-Wing, Shanti Sagar CHSL, Station Road, Bhayandar (West)",19.310263,72.85055,Mira Bhayandar,Maharashtra,46300,03-05-2022 09:01,03-05-2022 09:01,401101,India,Bhayandar (West),Union Bank Of India
6967,"Shiv Asthan Heights, 16th Road - Bandra (West)","Shop No. 4, Shiv-Asthan Heights (Shiv-Asthan (Khar) CHSL), 16th Road, TPS III, Bandra (West)",19.062881,72.83065,Mumbai,Maharashtra,46300,03-05-2022 09:01,03-05-2022 09:01,400050,India,Bandra (West),Shah Educational Academy
6968,"Galaxy Apartments, Bandstand - Bandra (West)","Shop No. 2 & 3, Galaxy Apartment CHSL, Byramjee Jeejeebhoy Road, Band Stand, Bandra (West)",19.05409,72.82342,Mumbai,Maharashtra,46300,03-05-2022 09:01,03-05-2022 09:01,400050,India,Bandra (West),Bandstand
6969,Madhu Park - Khar (West),"Shop No. G-1, Heera House Building, Khar Heera Co-operative Housing Society Limited, 1st Road,  Madhu Park Heera Building, Khar (West)",19.071701,72.83503,Mumbai,Maharashtra,46300,03-05-2022 09:01,03-05-2022 09:01,400052,India,Khar (West),Madhu Park
6970,"Rajgir Mansion, Dr. Ambedkar Road - Khar (West)","Shop No. 4, Rajgir Mansion Co-operative Housing Society Limited, Dr. Ambedkar Road, Khar (West)",19.072187,72.82734,Mumbai,Maharashtra,46300,03-05-2022 09:01,03-05-2022 09:01,400052,India,Khar (West),Union Park
6971,"MIG Cricket Club, Gandhi Nagar - Bandra (East)","Opposite M I G Cricket Club, Near Sai Baba Temple, Ali Yavar Jung Marg, Gandhi Nagar, Bandra (East)",19.058157,72.847595,Mumbai,Maharashtra,46300,03-05-2022 09:01,03-05-2022 09:01,400051,India,Bandra (East),MIG Cricket Club
6972,"Chapel Avenue, Chapel Road - Bandra (West)","Shop No. 5, Chapel Avenue CHSL, Chapel Road, Ranwar, Bandra (West)",19.051569,72.82835,Mumbai,Maharashtra,46300,03-05-2022 09:01,03-05-2022 09:01,400050,India,Bandra (West),Samata Sahakari Bank Limited
6973,"Ostwal Garden CHSL, Kanakia Road - Mira Road (East)","Shop No. 3, Ostwal Garden CHSL, Kanakia Road, Mira Road (East)",19.296862,72.8757,Mira Road,Maharashtra,46300,03-05-2022 09:01,03-05-2022 09:01,401107,India,Mira Road (East),Galaxy Hospital
6974,"Atreya CHSL, Edulji Road - Thane (West)","Shop No.1, Atreya CHSL, Edulji Road, Charai, Thane (West)",19.197496,72.97372,Thane,Maharashtra,46300,03-05-2022 09:01,03-05-2022 09:01,400601,India,Thane (West),Ganesh Talkies
6975,"Aishwarya Trade Centre, Pimple Nilakh - Pune","Shop No. 6 & 7, Aishwarya Trade Centre, Vishal Nagar, Pimple Nilakh",18.58788,73.77991,Pune,Maharashtra,46300,03-05-2022 09:01,03-05-2022 09:01,411027,India,Pimple Nilakh,Merazo Hotel
6976,"Om Harmony CHSL, Sector 11 - Kopar Khairane","Shop No. 7, Om Harmony CHSL, Plot No. 15/1, Sector 11, Kopar Khairane",19.092915,73.01195,Navi Mumbai,Maharashtra,46300,03-05-2022 09:01,03-05-2022 09:01,400709,India,Kopar Khairane,Bonkode Village
6977,"Krishna Prestige, Mira Village - Mira Road (East)","Shop No. 30, E-Wing, Krishna Prestige, MIDC Rd, Mira Village, Mira Road (East)",19.271015,72.874886,Mira Bhayandar,Maharashtra,46300,03-05-2022 09:01,03-05-2022 09:01,401107,India,Mira Road (East),Mira MIDC
6978,"Raj Life Style CHSL, Opp. GCC Club - Mira Road (East)","Shop No. 1, Raj Life Style CHSL, Hatkesh Udhog Nagar, Mira Bhayandar, Mira Road (East)",19.28264,72.87915,Mira Bhayandar,Maharashtra,46300,03-05-2022 09:01,03-05-2022 09:01,401107,India,Mira Road (East),GCC Club
6979,"Manas CHSL, Naupada - Thane (West)","Shop No. 5, 6 & 7, Manas CHSL, Mahatma Gandhi Road (Kopri Road), Bhaskar Colony, Naupada, Thane (West)",19.187145,72.96711,Thane,Maharashtra,46300,03-05-2022 09:01,03-05-2022 09:01,400602,India,Thane (West),Saraswati Krida Sankul
6980,"Shreyans Paradise, Hadapsar - Pune","Commercial Showroom, Ground Floor, Shreyans Paradise, Plot No. 60, Indraprashtha Society, Hadapsar",18.500301,73.94911,Pune,Maharashtra,46300,03-05-2022 09:01,03-05-2022 09:01,411028,India,Hadapsar,Indraprashtha Society
6981,"R Cube, Dhankawadi - Pune","Shop No. 5, 6, 7, 8, 9, R Cube, Survey No. 34/4/4/1, Dhankawadi, Haveli",18.46017,73.84955,Pune,Maharashtra,46300,03-05-2022 09:01,03-05-2022 09:01,411043,India,Haveli,Mohan Nagar
6982,"Honey Enclave, Kondhwa Khurd - Pune","Shop No. 1, 2, 3 & 4, Honey Enclave, Galli No. 20, Survey No. 18/5, N.I.B.M, Kondhwa Khurd",18.478666,73.89809,Pune,Maharashtra,46300,03-05-2022 09:01,03-05-2022 09:01,411048,India,Kondhwa Khurd,Nivedita Garden
6983,"Kaypee 14 Plus, Undri - Pune","Shop No. 11, Kaypee 14 Plus, Survey No. 39/1, Wadachiwadi Road, 38 Park Majestique",18.445827,73.91774,Pune,Maharashtra,46300,03-05-2022 09:01,03-05-2022 09:01,411060,India,38 Park Majestique,Undri
6984,"Sumeet Enclave CHSL, Sant Dnyaneshar Marg - Thane (West)","Shop No. 3, Sumeet Enclave CHSL, Sant Dnyaneshwar Marg, Panch Pakhadi Village, Thane (West)",19.195942,72.9658,Thane,Maharashtra,46300,03-05-2022 09:01,03-05-2022 09:01,400602,India,Thane (West),TMC Office
6985,"Govind Bhuvan, Old Nagardas Road - Andheri (East)","Shop No. 1, Govind Bhuvan, Old Nagardas Road, Andheri (East)",19.122063,72.85058,Mumbai,Maharashtra,46300,03-05-2022 09:01,03-05-2022 09:01,400069,India,Andheri (East),Shri Chinai College
6986,"Narmada CHSL, Sector 19 - Airoli","Shop No. D - 7 & 8, D Wing, Narmada CHSL,  Plot No - 36, Sector No. 19, Airoli",19.160366,72.99038,Navi Mumbai,Maharashtra,46300,03-05-2022 09:01,03-05-2022 09:01,400708,India,Airoli,Sec 19-20 Garden
6987,"Nirman Altius, Kharadi - Pune","Shop No. 5, A-Wing, Nirman Altius,,  Behind Raddison Hotel, S. No. 7, Hissa No. 2, Kharadi",18.553505,73.93887,Pune,Maharashtra,46300,03-05-2022 09:01,03-05-2022 09:01,411014,India,Kharadi,Raddison Blu
6988,"Satyam Imperial Heights, Sector 11 - Ghansoli","Shop No. 13, Satyam Imperial Heights CHSL, Plot No. 11, Sector 11, Ghansoli",19.120722,72.99149,Navi Mumbai,Maharashtra,46300,03-05-2022 09:01,03-05-2022 09:01,400701,India,Ghansoli,NMMT Bus Depot
6989,"Prajakta CHSL, J B Nagar - Andheri (East)","Shop No. 7, Bldg C, Prajakta CHSL, Sahar Airport Road, J.B. Nagar, Andheri (East)",19.107004,72.864746,Mumbai,Maharashtra,46300,03-05-2022 09:01,03-05-2022 09:01,400059,India,Andheri (East),Amar Fast Food
6990,"Hulse Building, 6th Phase - J.P. Nagar","Hulse Building, Site No. 717, Sarakki, 24th Main Road, 6th Phase, J.P. Nagar, J.P. Nagar",12.90451,77.58568,Bengaluru,Karnataka,46300,03-05-2022 09:01,03-05-2022 09:01,560078,India,J.P. Nagar,Udupi Upahar Party Hall
6991,"Ayyappa Arcade, 4th Phase - Girinagar","Ayyappa Arcade, Vishwabharathi CSL, 80 Feet Road, 4th Phase BDA, Srinivas Nagar, Girinagar, Girinagar",12.93483,77.5472,Bengaluru,Karnataka,46300,03-05-2022 09:01,03-05-2022 09:01,560085,India,Girinagar,Saligrama Party Hall
6992,"ARC Plaza, Mahadeo Nagar - Manjari Budruk","Shop No. 1, ARC Plaza, Mahadeo Nagar, Manjari Budrukh",18.50786,73.955414,Pune,Maharashtra,46300,03-05-2022 09:01,03-05-2022 09:01,412307,India,Manjari Budrukh,Sanjeevani Hospital
6993,"Bella Vista CHSL, Oswal Park - Thane (West)","Shop No. 2B, Bella Vista CHSL, Oswal Park, Pokharan Road, Thane (West)",19.214256,72.97631,Thane,Maharashtra,46300,03-05-2022 09:01,03-05-2022 09:01,400601,India,Thane (West),Oswal Park
6994,"Ashok Nagar CHSL, Vazira Naka, Borivali (West)","Shop No. 1, A Wing, Ashok Nagar CHSL, Baburav Paranjape Road, Vazira Naka, Borivali (West)",19.231764,72.84414,Mumbai,Maharashtra,46300,03-05-2022 09:01,03-05-2022 09:01,400092,India,Borivali (West),Jayraj Garden
6995,"Eshwari Embassy, 8th Phase - Kothnur","Eshwari Embassy Apartment, Plot No. 126/1, 8th Phase, Uttarahalli Hobli, Bommanahalli Zone, Kothnur",12.879045,77.58436,Bengaluru,Karnataka,46300,03-05-2022 09:01,03-05-2022 09:01,560078,India,Kothnur,Crossroad South Church
6996,"Pranav CHSL, Gaodevi Road - Thane (West)","Shop No.1, Pranav CHSL, Naik Wadi, Gaodevi Road, Thane (West)",19.188984,72.97542,Thane,Maharashtra,46300,03-05-2022 09:01,03-05-2022 09:01,400602,India,Thane (West),Gaodevi Bus Stop
6997,"Devchhaya, Rawalpada, Dahisar (East)","Shop No. 7, A & B Wing, Devchhaya, Shiv Vallabh Cross Road, Rawalpada, Dahisar (East)",19.244963,72.86795,Mumbai,Maharashtra,46300,03-05-2022 09:01,03-05-2022 09:01,400068,India,Dahisar (East),Ravalpada Market
6998,"Charan Heights, Ambegaon Buduruk - Pune","Shop No. 01, Charan Heights, Survey No. 2/1/1, Ambegaon Budurukh",18.458227,73.83536,Pune,Maharashtra,46300,03-05-2022 09:01,03-05-2022 09:01,411046,India,Ambegaon Budurukh,Sinhgad College
6999,"Anandbagh, Ananatha Sarawathi Nagar - Malkajgiri","Shop No. 25, E Anandbagh Main Road, Ananatha Sarawathi Nagar, Malkajgiri",17.458132,78.543205,Hyderabad,Telangana,46300,03-05-2022 09:01,03-05-2022 09:01,500040,India,Malkajgiri,Sai Linga's Banquet & Function Hall
7000,"Mangalmurti Complex, Hirabaug Chowk - Shukrawar Peth","Shop No. 11, Mangalmurti Complex, Lokmanya Bal Gangadhar Tilak Road, Dadawadi, Shukrawar Peth",18.504416,73.8546,Pune,Maharashtra,46300,03-05-2022 09:01,03-05-2022 09:01,411002,India,Shukrawar Peth,Hirabaug Chowk
7001,"Sri Srinivasa Nilayam, HB Colony Main Road - Moula Ali","Sri Srinivasa Nilayam Building, APHB Colony, HB Colony Main Road, Moula-Ali",17.461447,78.563225,Hyderabad,Telangana,46300,03-05-2022 09:01,03-05-2022 09:01,500040,India,Moula-Ali,Near Andra Bank
7002,"Arun Blu, Ravet - Pune","Shop No. C-1, C-2, C-3, C-4, C-5, C-6, C-7, C-8, C-Wing, Arun Blu, Survey No 97/1A/1A/1, Mhaske Wasti, Near Water Tank, Ravet",18.662067,73.745346,Pune,Maharashtra,46300,03-05-2022 09:01,03-05-2022 09:01,412101,India,Ravet,PCMC Water Tanks
7003,"Narendra Apartment CHSL, 6th Road - Santacruz (East)","Shop No.3, The Narendra Apartment CHSL, 6th Road, TPS III, Santacruz (East)",19.07989,72.84244,Mumbai,Maharashtra,46300,03-05-2022 09:01,03-05-2022 09:01,400055,India,Santacruz (East),R K Hospital
7004,"Meridian Building, Tulaja Bhawani Nagar - Kharadi","Shop No. 3, Meridan Building, Tulaja Bhawani Nagar, Dholepatil Farms Rd, Kharadi",18.560272,73.95042,Pune,Maharashtra,46300,03-05-2022 09:01,03-05-2022 09:01,411014,India,Kharadi,Vivero International Preschool & Child Care
7005,"Sahkari Groups, 18th Main Road - Padmanabhnagar","Shankari Groups, 18th Main Road, Chikkakallasandra Village, Anjanaswamy Layout, Padmanabhanagar",12.916463,77.55453,Bengaluru,Karnataka,46300,03-05-2022 09:01,03-05-2022 09:01,560070,India,Padmanabhanagar,Maharaja Agarsen hospital
7006,"Chunchghatta Main Road, Phase 7 - Chunchghatta","Site No. 36, Chunchghatta Main Road, Phase 7, Konanakunte, Chunchghatta",12.887739,77.570786,Bengaluru,Karnataka,46300,03-05-2022 09:01,03-05-2022 09:01,560078,India,Chunchghatta,Muthoot FinCorp Ltd
7007,"Chawl No. 1, 90 Feet Road - Dharavi","Shop No. 28, Chawl No. 1, 90 Feet Road, Kumbharwada, Dharavi",19.039688,72.854546,Mumbai,Maharashtra,46300,03-05-2022 09:01,03-05-2022 09:01,400017,India,Dharavi,Sai Hospital
7008,"Shivashankar Society, Shivashankar Society Road - Dattawadi","Plot No.7, Shivashankar Society, Shivshankar Society Road, Dattawadi",18.499496,73.84182,Pune,Maharashtra,46300,03-05-2022 09:01,03-05-2022 09:01,411030,India,Dattawadi,Sainath Saukat Ranapratap Mitra Mandal
7009,"Gangotri Apartment, Porwal Metallica - Rasta Peth","Shop No.3, Gangotri Complex CHSL, Porwal Metallica, Rasta Peth",18.518719,73.86713,Pune,Maharashtra,46300,03-05-2022 09:01,03-05-2022 09:01,411011,India,Rasta Peth,Shiral Seth Chowk
7010,"Nirmal Plaza, Badi Chowdi - Sultan Bazar","Shop No.3, Nirmal Plaza, Chandan Bagh, Badi Chowdi, Sultan Bazaar",17.389977,78.48857,Hyderabad,Telangana,46300,03-05-2022 09:01,03-05-2022 09:01,500095,India,Sultan Bazaar,Kachiguda X Road Bus Stop
7011,"Garudadri Apartments, Balamuri Main Road - Hulimavu","Garudadri Apartments, Balamuri Main Road, Hulimavu Layout",12.881158,77.60096,Bengaluru,Karnataka,46300,03-05-2022 09:01,03-05-2022 09:01,560076,India,Hulimavu Layout,Balamuri Ganesh Temple
7012,"Kesari Tilak Complex, Narayan Peth - Pune","Shop No. 1, 2, & 3, Kesari Tilak Complex, Hissa No. 568A, Narayan Peth",18.516113,73.84879,Pune,Maharashtra,46300,03-05-2022 09:01,03-05-2022 09:01,411030,India,Narayan Peth,Kesariwada
7013,"Vibrant Building, Anupuram Colony - A. S. Rao Nagar","Vibrant Building, Atomic Energy Employees CHSL, Anupuram Colony, Kapra Circle, Keesara Mandal, Ranga Reddy District",17.476845,78.56269,Secunderabad,Telangana,46300,03-05-2022 09:01,03-05-2022 09:01,500062,India,"Keesara Mandal, Ranga Reddy District",Thatha Hospital
7014,"Dolphin Garden CHSL, Sector 9 - Mira Road (East)","Shop No. 14, E-Wing, Dolphin Garden CHSL, Poonam Sagar Complex, Opp. Shanti Nagar, Sector 9, Mira Road (East)",19.272713,72.86364,Mira Bhayandar,Maharashtra,46300,03-05-2022 09:01,03-05-2022 09:01,401107,India,Mira Road (East),Desi Chai Theka
7015,"AFOCHS, Hi Tension Rd - Sainikpuri","AFO CHS, Hi Tension Road, Eshwapuri Colony, Sainikpuri, Medchal-Malkajgiri District",17.489214,78.5506,Secunderabad,Telangana,46300,03-05-2022 09:01,03-05-2022 09:01,500094,India,Medchal-Malkajgiri District,Hotel Surabhi
7016,"Chennamma Govindaiah Arcade, Nagarabhavi Main Road - Prashanth Nagar","Chennamma Govindaiah Arcade, Nagarabhavi Main Road, Kempegowda Layout, Prashanth Nagar",12.976179,77.53196,Bengaluru,Karnataka,46300,03-05-2022 09:01,03-05-2022 09:01,560079,India,Prashanth Nagar,Bharathy Hospital
7017,"VB Arcade, 80 Feet Road - Mallathalli","VB Arcade, ITI Employees Layout, 80 Feet Road, Yeshwanthapura Hobli, Jnanabharathi, Mallathalli Village",12.966798,77.5012,Bengaluru,Karnataka,46300,03-05-2022 09:01,03-05-2022 09:01,560056,India,Mallathalli Village,Akshaya Party Hall
7018,"B Block, AECS Layout - Singasandra","B Block, AECS Layout, Wellington Paradise, Begur, Singasandra Village",12.878972,77.637985,Bengaluru,Karnataka,46300,03-05-2022 09:01,03-05-2022 09:01,560068,India,Singasandra Village,State Bank Of India
7019,"Krupasindhu Apartment, Patankar Road - Nalasopara (West)","Shop No. 1, Ground floor, Krupasindhu Apartment, Building B, Behind Patankar Tower, Patankar Road, Nalasopara (West)",19.418715,72.81196,Mumbai,Maharashtra,46300,03-05-2022 09:01,03-05-2022 09:01,401203,India,Nalasopara (West),Star Hospital
7020,"Sindur Space CHSL, Pragati Nagar - Naranpura","Shop No.1, The Sindur Space CHSL, Alok Road, Behind Vardan Tower, Pragati Nagar, Naranpura",23.067888,72.55096,Ahmedabad,Gujarat,46300,03-05-2022 09:01,03-05-2022 09:01,380013,India,Naranpura,Opp Ocean Colina
7021,"Sumel 8 CSL, Lal Bahadur Shahstri Road - Rakhiyal","Shop no. G-01, G Block, The Sumel-8 CHSL, Lal Bahadur Shastri Road, Near Ajit Mill Cross Road, Rakhiyal",23.02209,72.6321,Ahmedabad,Gujarat,46300,03-05-2022 09:01,03-05-2022 09:01,380023,India,Rakhiyal,Ajit Mill Bus Stop
7022,"Moodalpalya Main Road, 2nd Block - Byraveshwara Nagar","Moodalpalya Main Road, 2nd Block, Byraveshwara Nagar, Govindraja Nagar Ward",12.965435,77.52336,Bengaluru,Karnataka,46300,03-05-2022 09:01,03-05-2022 09:01,560072,India,Govindraja Nagar Ward,Dhanush Hospital
7023,"Jayaraj Home, Main Road - Narhe","Shop No.4, Jayaraj Home, Narhe Road, Narhe Village , Taluka Haveli",18.4565,73.81954,Pune,Maharashtra,46300,03-05-2022 09:01,03-05-2022 09:01,411041,India,Taluka Haveli,Panchamrut Hotel & Mess
7024,"Muneshwara Block, Nagapura - Mahalakshmi Layout","2nd Cross Road, Muneshwara Block, Nagapura, Mahalakshmi Layout",13.008351,77.54302,Bengaluru,Karnataka,46300,03-05-2022 09:01,03-05-2022 09:01,560086,India,Mahalakshmi Layout,Ayyappa Swamy Temple
7025,"D R Pride, Devanna Compound - K Narayanapura","D R Pride, Devanna Compound, Opp. BDS Nagar, K Narayanapura, Kothanur Post",13.065813,77.64276,Bengaluru,Karnataka,46300,03-05-2022 09:01,03-05-2022 09:01,560077,India,Kothanur Post,Bangalore School of Design
7026,"SB Complex, Babusapalya Main Road - Babusapalya","Site No. 26, SB Complex, Chelkere Dhakale, Babusapalya, K.R. Puram Hobli",13.022842,77.65078,Bengaluru,Karnataka,46300,03-05-2022 09:01,03-05-2022 09:01,560043,India,K.R. Puram Hobli,VV Convention Hall
7027,"Times Square, 2nd Main Road - Kasturi Nagar","Times Square Building, 2nd Main Road, East of NGEF Layout, Kasturi Nagar",13.005451,77.6596,Bengaluru,Karnataka,46300,03-05-2022 09:01,03-05-2022 09:01,560043,India,Kasturi Nagar,New Janapriya Super Speciality Hospital
7028,"IR Arcade, Rukmininagar - Nagasandra","IR Arcade, 1st Block, Rukmininagar, Nagasandra main Road, Nagasandra, Dasarahalli Vilage",13.041103,77.504745,Bengaluru,Karnataka,46300,03-05-2022 09:01,03-05-2022 09:01,560073,India,Dasarahalli Vilage,Rukmini Nagara Bus Stop
7029,"Apollo Arcade CHSL, R.C. Technical College Road - Ghatlodia","Shop No. G2, The Apollo Arcaade CHSL, RC technical College Road, Vishwas City 1, Ghatlodia",23.083015,72.53297,Ahmedabad,Gujarat,46300,03-05-2022 09:01,03-05-2022 09:01,380061,India,Ghatlodia,Punjab Honda Showroom
7030,"VSP Crystal, Narsaiah Colony -  Dammaiguda X Road","Shop No.1, VSP Crystal, Opp Grama Panchayat Office, Narsaiah Colony, Dammaiguda X Road",17.50211,78.58859,Secunderabad,Telangana,46300,03-05-2022 09:01,03-05-2022 09:01,500083,India,Dammaiguda X Road,State Bank of India
7031,"Mauli Niwas, Ganesh Nagar - Wadgaon Sheri","Shop No. 2, Mauli Niwas, Iccha Trupti CHSL, Ganesh Nagar, Wadgaon Sheri",18.554876,73.92553,Pune,Maharashtra,46300,03-05-2022 09:01,03-05-2022 09:01,411014,India,Wadgaon Sheri,Rahul Video Bus Stop
7032,"Padmaraj CHSL, 100 Feet Road - Vasai (West)","Shop No. 5, Padmaraj CHSL, 100 Feet Road, Opp. St. Francis School, Diwanman, Vasai (West)",19.383526,72.82113,Thane,Maharashtra,46300,03-05-2022 09:01,03-05-2022 09:01,401202,India,Vasai (West),Mukti Dham Temple
7033,"Pragati Classic, Agashi Road - Virar (West)","Shop No.1, A-Wing, Pragati Classic, Agashi Road, Virar (West)",19.463007,72.777115,Thane,Maharashtra,46300,03-05-2022 09:01,03-05-2022 09:01,401301,India,Virar (West),Agashigaon Bus Stop
7034,"Tulip Garden, Oswal Nagri - Nallasopara (East)","Shop No.1, Building No.21, Tulip garden CHSL, Oswal Nagri, Central Park Road, Nallasopara (East)",19.427502,72.81785,Thane,Maharashtra,46300,03-05-2022 09:01,03-05-2022 09:01,401209,India,Nallasopara (East),Tandoor Chai Theka
7035,"Jayaraj, Narhe Gaon Road - Dhayari","Jayaraj, Narhe Gaon Road, Dhayri Village, Taluka Haveli",18.447079,73.813774,Pune,Maharashtra,46300,03-05-2022 09:01,03-05-2022 09:01,411041,India,Taluka Haveli,Kailas Jeevan Factory
7036,"Sparsh Building, Udhyamnagar - Pimpri Chinchwad","Sparsh Building, Udhyamnagar, Vastu Udyog, Pimpri Waghere Village , Pimpri Chinchwad",18.634289,73.82019,Pune,Maharashtra,46300,03-05-2022 09:01,03-05-2022 09:01,411018,India,Pimpri Chinchwad,Hotel Daksh
7037,"City Square CSL, Godrej Garden City - Jagatpur","Shop No. G-020B, City Square Commerial CSL, Godrej Garden City, Jagatpur",23.114014,72.554146,Ahmedabad,Gujarat,46300,03-05-2022 09:01,03-05-2022 09:01,382470,India,Jagatpur,19 Cinema
7038,"Shayona Shikhar, New SG Road - Gota","Shop No.1, Shayona Shikhar, Block No. A, New SG Road, behind Vishwakarma Temple, Gota",23.097122,72.54832,Ahmedabad,Gujarat,46300,03-05-2022 09:01,03-05-2022 09:01,382481,India,Gota,BAPS Swaminarayan Mandir Shayona Tilak
7039,"Angel Arcade, Virat Nagar Road - Nikol","Shop No.12, Angel Arcade, Virat Nagar Road, Opp. Palm Hotel, Nikol",23.031876,72.67293,Ahmedabad,Gujarat,46300,03-05-2022 09:01,03-05-2022 09:01,382350,India,Nikol,Indus Hospital
7040,"Sindhi Colony, Hansol - Sardar Nagar","Shop No. 248/B, Sindhi Colony, Main Road, Sardaar Nagar, Hansol",23.080944,72.62138,Ahmedabad,Gujarat,46300,03-05-2022 09:01,03-05-2022 09:01,382475,India,Hansol,Sai Baba Mandir
7041,"Sparsh CHSL, Jai Hind Cross Road - Maninagar","Shop No. 2, Sparsh CHSL, Daxini Society, Jai Hind Cross Road, Maninagar",22.994656,72.60755,Ahmedabad,Gujarat,46300,03-05-2022 09:01,03-05-2022 09:01,380008,India,Maninagar,Doon International Public School
7042,"Shakun Building, Jambuwadi Path - Ambegaon Khurd","Shop No.3, Shakun Building, Dalvi Wasti, Jambuwadi Path, Ambegaon Khurd",18.433481,73.843956,Pune,Maharashtra,46300,03-05-2022 09:01,03-05-2022 09:01,411046,India,Ambegaon Khurd,Lipake Vasti Bus Stop
7043,"Mahesh Darshan CHSL, Makhmali Talao - Thane (West)","Shop No. 1A, Mahesh Darshan CHSl, L.B.S. Marg, Near Makhmali Talao, Thane (West)",19.199425,72.97212,Thane,Maharashtra,46300,03-05-2022 09:01,03-05-2022 09:01,400601,India,Thane (West),Thane Bharat Sahakari Bank
7044,"Dharma Plaza Business Hub, Nikol Gan Road - Nikol","Shop no. 3, Dharma Plaza Business Hub, Opp. Khodiyar Temple, Nikol Gam Road, Nikol",23.041246,72.661804,Ahmedabad,Gujarat,46300,03-05-2022 09:01,03-05-2022 09:01,382350,India,"Nikol Gam Road, Nikol",Sri Khodiyar Matanu Mandir
7045,"Aatrey Rudra Elegance, Pushpkunj Road - Maninagar","Shop No. 4, Aatrey Rudra Elegance, Prankunj Society, Pushpkunj Road, Kankaria, Maninagar",23.001694,72.59828,Ahmedabad,Gujarat,46300,03-05-2022 09:01,03-05-2022 09:01,380008,India,"Kankaria, Maninagar",Pranshankar Hall Bus Stop
7046,"Ameya Classic Club, Yashwant Nagar Road - Virar (West)","Shop No.1, Building No.17, Ameya Classic Club, Yashwant Nagar Road, Virar (West)",19.442465,72.80971,Thane,Maharashtra,46300,03-05-2022 09:01,03-05-2022 09:01,401303,India,Virar (West),Yashwant Nagar Cricket Ground
7047,"Siddhivinayak Arcade, Makwana Complex - Virar (East)","Shop No.4, Building No.4, Siddhivinayak Arcade, Veer Savarkar Marg, Narangi Village, Virar (East)",19.46452,72.814514,Thane,Maharashtra,46300,03-05-2022 09:01,03-05-2022 09:01,401305,India,Virar (East),Anusaya Children Hospital
7048,"Srinivasa Nagar Colony, Hi-Tension Road - Kapra","Srinivasa Nagar Colony, Block No. 1, Hi-Tension Road, Adjacent to Road No.3, Kapra",17.47994,78.5624,Secunderabad,Telangana,46300,03-05-2022 09:01,03-05-2022 09:01,500062,India,Kapra,Sai Ganga Kalyana Mandapam
7049,"Vraj Arcade CSL, Shri Balaji Road - Nava Naroda","Shop No.10, The Vraj Arcade CSL, Shri Balaji Road, Near Swaminarayan Mandir, Nava Naroda",23.080143,72.67257,Ahmedabad,Gujarat,46300,03-05-2022 09:01,03-05-2022 09:01,382330,India,Nava Naroda,Opp Vitthal Velocity
7050,"Madhusudan Business Park, Narol Naroda Road - Naroda","Shop No.5, Block No. A, The Madhusudan Business Park CHSL, Opposite Naroda GIDC, Naroda",23.08316,72.65697,Ahmedabad,Gujarat,46300,03-05-2022 09:01,03-05-2022 09:01,382330,India,Naroda,Maan Petrol Pump
7051,"Daftari Complex, M. B. Estate - Virar (West)","Shop No.7, Daftary Complex CHSL, M. B. Estate, Kamanwala Nagar, Virar (West)",19.453732,72.80608,Thane,Maharashtra,46300,03-05-2022 09:01,03-05-2022 09:01,401303,India,Virar (West),Kalyani Children's Hospital
7052,"Amenity, Kalpataru Regency II - Kalyani Nagar","Shop No. 1, Amenity, Kalpataru Regency  II, Road No.10, Palace View Society, Kalyani Nagar",18.550571,73.904106,Pune,Maharashtra,46300,03-05-2022 09:01,03-05-2022 09:01,411006,India,Kalyani Nagar,Supreme Hotel
7053,"Rajgruhi Business Hub, Gangadham Sahtrunjay Road - Kondhwa Budruk","Shop No. 3, Rajgruhi Business Hub, Near Gokul Hotel, Gangadham Shatrunjay Road, Kondhwa Budruk",18.460707,73.87753,Pune,Maharashtra,46300,03-05-2022 09:01,03-05-2022 09:01,411048,India,Kondhwa Budruk,V.I.T. Corner Bus Stop
7054,"Kudale Plaza, Savta Mali Nagar - Pimpri Colony","Shop No. 2, Kudale Plaza, Tapovan Mandir Road, Savta Mali Nagar, Pimpri Colony, Pimpri-Chinchwad",18.616552,73.80057,Pune,Maharashtra,46300,03-05-2022 09:01,03-05-2022 09:01,411018,India,"Pimpri Colony, Pimpri-Chinchwad",Hotel Shree Ganesh
7055,"Marigold CHSL, Anand Nagar - Vadgaon Budruk","Shop No.1, Ground Floor, Marigold CHSL, Anand Nagar, Sinhgad Police Station Road, Vadgaon Budruk",18.472488,73.81417,Pune,Maharashtra,46300,03-05-2022 09:01,03-05-2022 09:01,411041,India,Vadgaon Budruk,Sinhgad Road Police Station
7056,"Saral Heights CHSL, Science City - Sola","Shop no. 13, B Block, Saral Heights CHSl, Science City, Near GSC Bank, Vrundavan Party Plot Road, Sola",23.076763,72.519325,Ahmedabad,Gujarat,46300,03-05-2022 09:01,03-05-2022 09:01,380060,India,Sola,Pinnacle Grand Hotels & Banquets
7057,"Sunrise Business Centre, Nikol Gam Road - Nikol","Shop No. 19, Sunrise Business Centre, Nikol Gam Road, Near Sunrise Circle, Nikol",23.040367,72.67296,Ahmedabad,Gujarat,46300,03-05-2022 09:01,03-05-2022 09:01,382350,India,"Near Sunrise Circle, Nikol",Sunrise Women's & Medical Hospital
7058,"Nagamalla Nest, Krishna Nagar Colony - Moula Ali","Ground Floor, Nagamalla Nest, Krishna Nagar Colony, NFC Main Road, Mallapur Village, Moula Ali",17.45133,78.568306,Secunderabad,Telangana,46300,03-05-2022 09:01,03-05-2022 09:01,500040,India,Moula Ali,Krishna Nagar Bus Stop
7059,Jayanti Nagar Main Road - Horamavu,"84/2, Ground Floor, Jayanti Nagar Main Road, Jayanti Nagar, Near V M Grandeur, Horamavu",13.025418,77.66797,Bengaluru,Karnataka,46300,03-05-2022 09:01,03-05-2022 09:01,560043,India,Horamavu,VIBGYOR High School
7060,"Madhireddy MRR Centro, Aravind Nagar - Rampally","Madhireddy MRR CETRO, Nagaram Village, Aravind Nagar, Medchal-Malkajgiri District",17.493639,78.60557,Hyderabad,Telangana,46300,03-05-2022 09:01,03-05-2022 09:01,500083,India,Medchal-Malkajgiri District,Rampally X Road Bus Stop
7061,"Binori Pristine CHSL, 100 Feet Road - Satellite","Shop No.3, Ground Floor, Binori Pristine CHSL, Block No. B, 100 Feet Road, Satellite",23.014353,72.52299,Ahmedabad,Gujarat,46300,03-05-2022 09:01,03-05-2022 09:01,380015,India,Satellite,Auda Garden
7062,"Sree Krishna, Vijaya Bank Layout - Bilekahalli","Shree Krishna Building, Vijaya Bank Colony, Kutappa Garden, Bilekahalli Village",12.895822,77.61092,Bengaluru,Karnataka,46300,03-05-2022 09:01,03-05-2022 09:01,560076,India,Bilekahalli Village,Masjid E Hamza
7063,"Suryam Aura, Jivanwadi Road - Nikol","Shop No.03, Block A, Ground Floor, Suryam Aura, Opp. Shiromani Residency, Behind Jivanwadi Road, Nikol",23.03722,72.65755,Ahmedabad,Gujarat,46300,03-05-2022 09:01,03-05-2022 09:01,380038,India,Nikol,Sattadhar Dining Hall
7064,"DNR Dumbala Complex, Sai Ram Nagar Colony - Chowdhariguda","Shop No.2, DNR Dumbala Complex, Sai Ram Nagar Colony, Road No. 1B, R.R.District, Chowdhariguda",17.413204,78.64105,Hyderabad,Telangana,46300,03-05-2022 09:01,03-05-2022 09:01,500039,India,Chowdhariguda,Venkatadri Township Bus Stop
7065,"Kaushalya Heights, Canal Road - Sama","Shop No. 1,Tower A, Kaushalya Heights, Chhani Canala Road, Near Preet Party Hall, Sama",22.350012,73.189606,Vadodara,Gujarat,46300,03-05-2022 09:01,03-05-2022 09:01,390024,India,Sama,Solar Sub Station
7066,"Corner Point CSL, Makarpura Maneja Main Road - Maneja","Shop No. 18, Corner Point CSL, Opp. Voltamp, Makarpura Maneja Main Road, Mouje Jambuva",22.23203,73.18722,Vadodara,Gujarat,46300,03-05-2022 09:01,03-05-2022 09:01,390013,India,Mouje Jambuva,Makarpura Hospital Unit-II
7067,Kenchena Halli Road - RR Nagar,"248/2, Ground Floor, Kenchena Halli Road, 5th Stage, Near Jnanakshi School, Halagevaderahalli, RR Nagar",12.911414,77.51354,Bengaluru,Karnataka,46300,03-05-2022 09:01,03-05-2022 09:01,560098,India,"Halagevaderahalli, RR Nagar",Indian Oil Petrol Pump
7068,"Raja Complex, Vijay Char Rasta - Navrangpura","Shop No. 2, Ground Floor, Raja Complex, Vijay Char Rasta, Narvrangpura",23.042309,72.54947,Ahmedabad,Gujarat,46300,03-05-2022 09:01,03-05-2022 09:01,380009,India,Narvrangpura,HSG House
7069,"Santosh Nagar Main Road, Maruthi Nagar - Santosh Nagar","Shop No. 1, Ground Floor, Santosh Nagar Main road, Maruthi Nagar, Santosh Nagar",17.345148,78.50802,Hyderabad,Telangana,46300,03-05-2022 09:01,03-05-2022 09:01,500059,India,Santosh Nagar,Canara Bank
7070,"Metro Greens, Tilekar Nagar Road - Kondhwa","Shop No. 12, Ground Floor, Metroc Greens, Tilekar Nagar Road, Near Sinhgad City School, Opp Phoenix Arena Cricket & Football Turf, Katraj Kondhwa",18.44961,73.88416,Pune,Maharashtra,46300,03-05-2022 09:01,03-05-2022 09:01,411048,India,Katraj Kondhwa,Dhan Moti Super Market
7071,"Sabari, LIC Colony - Jeevan Bima Nagar","SABARI, LIC Colony, Kodihalli Village, HAL III Stage, Jeevan Bima Nagar",12.967851,77.654144,Bengaluru,Karnataka,46300,03-05-2022 09:01,03-05-2022 09:01,560075,India,Jeevan Bima Nagar,Indian Oil Petrol Pump
7072,"Ornet Arcade, Aurobindo Society Road - Bodakdev","Shop No. 10, Ground Floor, Ornet Arcade, Near Vishvaketu Tower II, Opposite AUDA Garden, Aurobindo Society Road, Bodakdev",23.04026,72.5207,Ahmedabad,Gujarat,46300,03-05-2022 09:01,03-05-2022 09:01,380015,India,Bodakdev,Artho Care & Arthroscopy Centre
7073,"Rainbow Crossroad, Pune Nagar Highway - Wagholi","Shop No.8, Ground Floor, Rainbow Crossroad CSL, Pune Nagar Highway, Bakori Phata, Wagholi",18.589613,73.99683,Pune,Maharashtra,46300,03-05-2022 09:01,03-05-2022 09:01,412207,India,Wagholi,Mc Donald's
7074,"Jay Complex, Dasarahalli - Hebbal Kempapura","Shop No.1, Ground Floor, Jay Complex, Bhuvaneshwari Nagar, Dasarahalli Village, Hebbal Kempapura",13.054521,77.601906,Bengaluru,Karnataka,46300,03-05-2022 09:01,03-05-2022 09:01,560024,India,Hebbal Kempapura,Bhuvaneshwari Park & Temple
7075,"Four Square CHSL, Vadsar Vishwamitri Road - Manjalpur","Shop No. 19, Tower A-B, Four Square CHSL, Billabong School Lane, Vadsar Vishwamitri Road, Manjalpur",22.272062,73.174,Vadodara,Gujarat,46300,03-05-2022 09:01,03-05-2022 09:01,390010,India,Manjalpur,Woodsville
7076,"Makhija Complex, Maya Cinema Road - Kuber Nagar","Makhija Complex, Ground Floor, Plot No. 31, G Ward, Maya Cinema Road, Kuber Nagar",23.080734,72.64367,Ahmedabad,Gujarat,46300,03-05-2022 09:01,03-05-2022 09:01,382340,India,Kuber Nagar,Shyam Sunder Bakery
7077,"Adinath Tower, Kanti Park Road - Borivali West","Shop No.3, Adinath Tower, Eksar Village, Kanti Park Road, Near Witty World School, Chikuwadi",19.223982,72.83531,Mumbai,Maharashtra,46300,03-05-2022 09:01,03-05-2022 09:01,400092,India,Chikuwadi,Gorai Pumping Station Bus Stop
7078,"Avani Homes, Bapa Sitaram Chowk - Nava Naroda","Shop No. 28, Block E & F, Ground Floor, Avani Homes CHSL, Near Bapa Sitaram Square, Nava Naroda Road, Nava Naroda",23.05547,72.65856,Ahmedabad,Gujarat,46300,03-05-2022 09:01,03-05-2022 09:01,382330,India,Nava Naroda,Santoshi Mata Mandir
7079,"Maruti Shine, A Block - Nana Chiloda","Shop No.3, Ground Floor, A Block, Maruti Shine, Opp Royal Arcade, Nana Chiloda",23.107538,72.65883,Ahmedabad,Gujarat,46300,03-05-2022 09:01,03-05-2022 09:01,382330,India,Nana Chiloda,Royal Gujarat General Hospital
7080,"Crystal Icon 2, Kathwada Road - Naroda","Shop No.1, Crystal Icon-2, Near Shelbi Hospital, Kathwada Road, Naroda",23.069534,72.67783,Ahmedabad,Gujarat,46300,03-05-2022 09:01,03-05-2022 09:01,382330,India,Naroda,Sarathi Bunglow Bus Stop
7081,"Alok Paradise - 2, Alok Road - Vastral","Shop No. 1, Block A, Alok Paradise-2 CHSL, Bapa Sita Ram Chowk, Alok Road, Vastral",22.99244,72.66284,Ahmedabad,Gujarat,46300,03-05-2022 09:01,03-05-2022 09:01,382418,India,Vastral,Metro Mall
7082,"Swad Gali, Agashi Road - Virar West","Shop No. 277, Beside Yashwant Heights, Swad Gali, Agashi Road, Opp. Vidya Vihar English High School, Virat Nagar, Virar (West)",19.449438,72.80679,Thane,Maharashtra,46300,03-05-2022 09:01,03-05-2022 09:01,401303,India,Virar (West),Ayappa Temple
7083,"Shalivahana Nagar, SBI Colony - Dilsukhnagar","Plot No. 223, Shalivahana Nagar, Moosarambagh, SBI Colony, Dilsukhnagar",17.373072,78.52018,Hyderabad,Telangana,46300,03-05-2022 09:01,03-05-2022 09:01,500036,India,Dilsukhnagar,Spasta Multicuisine Family Restaurant & Banquet Hall
7084,"Varmaaja Annexe, Kaggadasapura Main Road - Vignan Nagar","Shop No. G-1, Ground Floor, Varmaaja Annexe, Kaggadasapura Main Road, Near Abbaiah Reddy Layout, Vignan Nagar",12.979869,77.67978,Bengaluru,Karnataka,46300,03-05-2022 09:01,03-05-2022 09:01,560093,India,Vignan Nagar,Karnataka Bank
7085,"S V plaza, Mahadevpura - AECS Layout","S V Plaza, Site No. 267, Ground Floor, A Block, AECS Layout Main Road, Mahadevpura",12.963479,77.709305,Bengaluru,Karnataka,46300,03-05-2022 09:01,03-05-2022 09:01,560037,India,Mahadevpura,Kidzee
7086,"Santorini Square CSL, Jodhpur Village - Satellite","Shop No.5, Santorini Square CSL,Near Abhishri Complex, Prernatirth Derasar Road, Jodhpur Village, Satellite",23.024899,72.52337,Ahmedabad,Gujarat,46300,03-05-2022 09:01,03-05-2022 09:01,380015,India,Satellite,IDFC First Bank
7087,"Tulsi Park View CHSL, Sorai Nagar - Vasna","Shop No.2, Tulsi Park View CHSL, Sorai Nagar, Near Rajyash Riverium, Vasna",22.993074,72.54416,Ahmedabad,Gujarat,46300,03-05-2022 09:01,03-05-2022 09:01,380007,India,Vasna,Swaminarayan Park Bus Stop
7088,"The Horizon Complex, Lalbaug Road - Manjalpur","Shop No.12, Ground Floor, The Horizon Complex, Opp. 331 Officer's Mess, Near Makarpura Police Station, Lalbaug Road, Manjalpur",22.271719,73.202545,Vadodara,Gujarat,46300,03-05-2022 09:01,03-05-2022 09:01,390004,India,"Lalbaug Road, Manjalpur",Vishwas General Hospital & Maternity Home
7089,"Tarun Shakti CHSL, Bhumi Nagar - Ghatlodia","Shop No.1, Ground Floor, Tarun Shakti CHSL, Near Alkapuri Society, Bhumi Nagar Part 2, Ghatlodia",23.065722,72.53599,Ahmedabad,Gujarat,46300,03-05-2022 09:01,03-05-2022 09:01,380061,India,Ghatlodia,Shree Panchdev Temple
7090,"Sun Avenue One CSL, Ayojan Nagar - Bhudarpura","Shop No.6, Sun Avenue One Commercial CHSL, Maa Anandmayi Marg, Ayojan Nagar, Manekbaug Society, Bhudarpura",23.016335,72.53797,Ahmedabad,Gujarat,46300,03-05-2022 09:01,03-05-2022 09:01,380059,India,"Manekbaug Society, Bhudarpura",Saiyojan Society Bus Stop
7091,"Abhilasha Heights, Gopal Chowk Road - Nikol","Shop No. 9, Abhilasha Heights, Pushpavan Bungalows, Gopal Chowk Road, Near Shree Krishna Vidhyalaya, New Naroda, Nikol",23.04753,72.660736,Ahmedabad,Gujarat,46300,03-05-2022 09:01,03-05-2022 09:01,382350,India,"New Naroda, Nikol",Ramvilla Heights
7092,"Crystal Enclave CHSL, St. Anthony Road - Santacruz (East)","Shop No. 1, Crystal Enclave CHSL, St. Anthony's Road, Kadamwadi Junction, Opp Jazz Enclave, Vakola, Santacruz (East)",19.078924,72.85825,Mumbai,Maharashtra,46300,03-05-2022 09:01,03-05-2022 09:01,400055,India,"Vakola, Santacruz (East)",Crystal Pharmacy And Super Market
7093,"Lakshmi Nagar, Welllington Road - West Marredpally","House No.176/A, Ground Floor, Lakshmi Nagar, Near Picket, Wellington Road, West Marredpally",17.454632,78.50242,Hyderabad,Telangana,46300,03-05-2022 09:01,03-05-2022 09:01,500009,India,West Marredpally,Gandhian School
7094,"NSK Arcadia, JP Park - Yeshwanthpura","NSK ARCADIA, Ground Floor, BK Nagar 1st Main Road, Pampanagar, Near JP Park, Yeshwanthpura",13.03189,77.55365,Bengaluru,Karnataka,46300,03-05-2022 09:01,03-05-2022 09:01,560022,India,Yeshwanthpura,Aishwarya Ladies PG
7095,"Sharanam Heights, Ashram Road - Jahangipura","Shop No. 6, Ground Floor, Building No. B-C, Sharanam Heights, Ashram Road, Jahangirpura",21.249075,72.79444,Surat,Gujarat,46300,03-05-2022 09:01,03-05-2022 09:01,395005,India,Jahangirpura,Aasharam Ashram
7096,"SNS Arista, Opp Happy Residency - Vesu","Shop No. 8, Ground Floor, SNS Arista CSL, Opp Happy Residency, Vesu",21.146795,72.76654,Surat,Gujarat,46300,03-05-2022 09:01,03-05-2022 09:01,395007,India,Vesu,Wheels and pieces Restaurant
7097,"Manibaug Society, Katargam Main Road - Katargam","Ground Floor, Manibaug Group Housing Society, Katargam Main Road, Near Hotel Parash Inn, Katargam",21.214659,72.8283,Surat,Gujarat,46300,03-05-2022 09:01,03-05-2022 09:01,395004,India,Katargam,Gopal Hospital
7098,"The Galleria Complex, Yogi Chowk - Nana Varacha","Shop No.16, The Galleria Complex, Yogi Chowk, Chikuwadi, Nana Varachha",21.213343,72.88478,Surat,Gujarat,46300,03-05-2022 09:01,03-05-2022 09:01,395010,India,Nana Varachha,City Civic Centre Yogi Bus Stop
7099,"Gopal Park CHSL, Sima Nagar - Palanpur","Shop No.1, Ground Floor, Gopal Park CHSL, Palanpore Village, Near Jalaram Temple, Palanpur Road, Sima Nagar",21.20913,72.77821,Surat,Gujarat,46300,03-05-2022 09:01,03-05-2022 09:01,395009,India,Sima Nagar,Raj Orion Shopping Mall
7100,"Sri Krishna, 7th Main Road - BTM Layout","Sri Krishna, 7th Main Road, Rashtrakavi Kuvempu Nagar, 2nd Stage, BTM Layout",12.910864,77.606575,Bengaluru,Karnataka,46300,03-05-2022 09:01,03-05-2022 09:01,560076,India,"2nd Stage, BTM Layout",Namaste Restaurant
7101,"LK & Dr. Padmashree, Sri Colony - Neredmet X Road","Shop No. 102, 1st Floor, LK & Dr. Pradmashree Commercial Space, Sri Colony, Ramakrishnapuram, Neredmet X Road",17.481451,78.53616,Secunderabad,Telangana,46300,03-05-2022 09:01,03-05-2022 09:01,500056,India,Neredmet X Road,Berachah Prayer House
7102,"Neel Arcade & Bunglow, Kathwada Road - Nava Naroda","Shop No.7, Neel Arcade and Bunglow, Opposite Saint Xavier's School, Vasant Vihar 2, Kathwada Road, Nava Naroda",23.070322,72.67027,Ahmedabad,Gujarat,46300,03-05-2022 09:01,03-05-2022 09:01,382330,India,"Kathwada Road, Nava Naroda",Saint Xaviers English School Bus Stop
7103,"Trade Square, Aarav CHSL - Maninagar (East)","Shop No.13, Ground Floor, Aarav CHSL, Block X, Trade Square, Near Kokhara Circle, Maninagar East",23.002726,72.6193,Ahmedabad,Gujarat,46300,03-05-2022 09:01,03-05-2022 09:01,380008,India,Maninagar East,Rajarshi Tata Motors Showroom
7104,"The Elite CSL, S G Highway - Sola","Shop No.7, The Elite Co-operative Commercial Service Society Limited, Opposite Shapath Hexa, S G Highway, Near Kargil Petrol Pump, Sola",23.073902,72.525856,Ahmedabad,Gujarat,46300,03-05-2022 09:01,03-05-2022 09:01,380060,India,Sola,Senior Citizen Park
7105,"Abhilasha Residency, New India Colony Road - Nikol","Shop No.34, Abhilasha Residency, Block No.D, New India Colony Road, Nava Nikol",23.053719,72.67306,Ahmedabad,Gujarat,46300,03-05-2022 09:01,03-05-2022 09:01,382350,India,Nava Nikol,Ankur Row House Bus Stop
7106,"Sun Enclave, Jalaram Mandir Road - Kareli Bagh","Shop No. 14, Ground Floor, Sun Enclave, Jalaram Mandir Road, Kareli Bagh",22.312634,73.195946,Vadodara,Gujarat,46300,03-05-2022 09:01,03-05-2022 09:01,390018,India,Kareli Bagh,Jalaram Temple
7107,"65th Cross Road, 5th Block - Rajaji Nagar","Property No.368, Ground Floor, 65th Cross Road, 5th block, Rajajinagar, Near Bashyam Circle",12.982755,77.55393,Bengaluru,Karnataka,46300,03-05-2022 09:01,03-05-2022 09:01,560010,India,Near Bashyam Circle,Eminent Multi Gym
7108,"Siddappa Layout, Devasandra Main Road - Krishnarajapura","House site No.4, Ground Floor, Siddappa Layout, Bajaj Layout, Devasandra Main Road, Near NMPC Hospital, Krishnarajapura",13.0060835,77.70028,Bengaluru,Karnataka,46300,03-05-2022 09:01,03-05-2022 09:01,560036,India,Krishnarajapura,Devasandra Bus Stop
7109,"Pramukh Orbit-2 CSL, Canal Road - Vesu","Shop No. 3, Ground Floor, Pramukh Orbit -2 CSL, Besides Cellestial Dreams, Canal Road, Bharthana, Vesu",21.145367,72.7866,Surat,Gujarat,46300,03-05-2022 09:01,03-05-2022 09:01,395007,India,"Bharthana, Vesu",Satva Hospital
7110,"Parimala Ratna Vihar, Maruthi Nagar - Kothapet","Shop No. 4, Ground Floor, Parimala Ratna Vihar, Maruthi Nagar Road, Kothapet",17.373268,78.54139,Hyderabad,Telangana,46300,03-05-2022 09:01,03-05-2022 09:01,500060,India,Kothapet,Swetha Garden
7111,"Nagarjuna Nagar Colony, Street No 13 - Tarnaka","Ground Floor, Nagarjuna Nagar Colony, Near Tarnaka Pet Animal Clinic, Street No. 13, Tarnaka",17.429537,78.54191,Secunderabad,Telangana,46300,03-05-2022 09:01,03-05-2022 09:01,500017,India,"Street No. 13, Tarnaka",Maisamma Temple
7112,"Sahithi Nagar, Gaddinnaram - P&T Colony","Ground Floor, Plot No. 11, P&T Colony, New Post Office Road, Sahithi Nagar, Gaddiannaram Village",17.36237,78.52538,Hyderabad,Telangana,46300,03-05-2022 09:01,03-05-2022 09:01,500060,India,Gaddiannaram Village,Sri Venkateshwara Temple
7113,"Shivaay Enclave, Naroda Road - Saijpur Bogha","Shop No. 07, Ground Floor, Shivaay Enclave CSL, Plot No. 110, Krishna Nagar, Naroda Road, Patiya, Saijpur Bogha",23.063358,72.64173,Ahmedabad,Gujarat,46300,03-05-2022 09:01,03-05-2022 09:01,382345,India,"Patiya, Saijpur Bogha",Excise Chowki Bus Stop
7114,"Sovereign Shoppers CSL, Anand Mahal Road - Adajan","Shop No. 1, Ground Floor, Sovereign Shoppers CSL, Near Sindhu Seva Samiti School, Anand Mahal Road, Adajan",21.199484,72.79364,Surat,Gujarat,46300,03-05-2022 09:01,03-05-2022 09:01,395009,India,Adajan,Varun Kidney Hospital
7115,"Vivekananda Nagar Colony, Dilsukhnagar - VV Nagar","Ground Floor, Vivekananda Nagar Colony, Dilsukhnagar,, Gaddiannaram, Near Sai Vanam Complex, VV Nagar",17.36266,78.53043,Hyderabad,Telangana,46300,03-05-2022 09:01,03-05-2022 09:01,500060,India,VV Nagar,VV Nagar Bus Stop
7116,"Shiromani Complex, Surendra Mangaldas Road - Ambawadi","Shop No. 13, Ground Floor, Shiromani Complex, Surendra Mangaldas Road, Acharya Narendradev Nagar, Opp. Ocean Park, Ambawadi",23.023216,72.53788,Ahmedabad,Gujarat,46300,03-05-2022 09:01,03-05-2022 09:01,380015,India,Ambawadi,Haridas Park Bus Stop
7117,"V N Greens CHSL, Nirnay Nagar - Nava Vadaj","Shop No.A6, Ground Floor, A Block, V N Greens CHSL, Nirnay Nagar, Behind Dream Square Shopping Mall, Nava Vadaj",23.07138,72.56052,Ahmedabad,Gujarat,46300,03-05-2022 09:01,03-05-2022 09:01,380013,India,Nava Vadaj,Blooming Kidz Pre School
7118,"Tulsi Residency CSL, Block C - Chandkheda","Shop No.13, Ground Floor, Block C, Tulsi Residency CSL, Mansarovar Road, New Chandkheda",23.114109,72.56779,Ahmedabad,Gujarat,46300,03-05-2022 09:01,03-05-2022 09:01,382424,India,New Chandkheda,null
7119,"Samitha Enclave, KPHB Colony Road - Kukatpally","Ground Floor, Samitha Enclave, Phase-IX, KPHB Colony Road, Next to Taaza Super Market, Kukatpally",17.485455,78.38673,Hyderabad,Telangana,46300,03-05-2022 09:01,03-05-2022 09:01,500085,India,Kukatpally,Sahaja Aharam Organic Store
7120,"Savya Skyz, Sardar Patel Ring Road - Chandkheda","Shop No. A/01, Savya Skyz, Sardar Patel Ring Road, Near Shantavan Party Plot, Chandkheda",23.132523,72.574356,Ahmedabad,Gujarat,46300,03-05-2022 09:01,03-05-2022 09:01,382421,India,Chandkheda,Cricket Ground
7121,"Gokarnika Residency, Adagutta CHSL - Kukatpally","Shop No.3, Ground Floor, Gokarnika Residency, Adagutta CHSL, Street Number 8, Western Hills, Jal Vayu Vihar, Kukatpally",17.50045,78.39549,Hyderabad,Telangana,46300,03-05-2022 09:01,03-05-2022 09:01,500085,India,"Jal Vayu Vihar, Kukatpally",Fitness Plus Gym
7122,"Central Sales & Service, Siddhnath Road - Navapura","Ground Floor, Central Sales & Service Building, Opp Patel Colony, Behind Khanderao Market, Siddhnath Road, Moti Tamboli, Navapura",22.293568,73.20305,Vadodara,Gujarat,46300,03-05-2022 09:01,03-05-2022 09:01,390001,India,"Moti Tamboli, Navapura",Shree Bolai Mata Mandir
7123,"Ananya Heights, Tower A - Khodiyar Nagar","Shop No.1, Tower A, Ananya Heights, 30 Meter Khodiyar Nagar Road, Near Siddharth Nagar Gate, Khodiyar Nagar",22.329765,73.2374,Vadodara,Gujarat,46300,03-05-2022 09:01,03-05-2022 09:01,390022,India,Khodiyar Nagar,Shivam Park Bus Stop
7124,"Saujanya Tri Lake, Ajwa Road - Kamala Nagar","Shop No. 8, Ground Floor, Saujanya Tri Lake, Ajwa Road, Kamala Nagar, Madhavpura",22.31944,73.24935,Vadodara,Gujarat,46300,03-05-2022 09:01,03-05-2022 09:01,390019,India,Madhavpura,Rms Polytechnic College
7125,"C N Complex, RR Nagar - Channasandra","Site No. 19, Ground Floor, C N Complex, Uttarahalli Main Road, RR Nagar, Channasandra",12.902559,77.52019,Bengaluru,Karnataka,46300,03-05-2022 09:01,03-05-2022 09:01,560098,India,Channasandra,KK Mahesh PU College
7126,"Siri Shubham, 24th Main Road - HSR Layout","Site No. 1023, Ground Floor, Siri Shubham, 24th Main Road, 11th A Cross Road, HSR Layout",12.916791,77.6492,Bengaluru,Karnataka,46300,03-05-2022 09:01,03-05-2022 09:01,560102,India,HSR Layout,Assetz 27 Park Avenue
7127,"Sanjeevini Complex, Bellandur - Devarabisanahalli","Shop No. 02, Ground Floor, Sanjeevini Complex, Opp. Mahalaxmi Textile Showroom, Near SLS Splender Apartment, Bellandur, Devarabisanahalli",12.928153,77.68778,Bengaluru,Karnataka,46300,03-05-2022 09:01,03-05-2022 09:01,560103,India,"Bellandur, Devarabisanahalli",Maruthi Mansion Shopping Mall
7128,"Sri Someswara Enclave, Valagerahalli - Kengeri","House No.17, Ground Floor, Sri Someswara Enclave, Valagerahalli, MIG II Stage, 80 Feet Road, Near Hoysala Circle, Kengeri Satellite Town",12.92466,77.48561,Bengaluru,Karnataka,46300,03-05-2022 09:01,03-05-2022 09:01,560060,India,Kengeri Satellite Town,World of Titan
7129,Nanjappa Thindlu Road - Vidyaranyapura,"Ground Floor, Site No. 02, Nanjappa - Thindlu Road, Near State Bank Of India, Vidyaranyapura, Thindlu",13.071292,77.56785,Bengaluru,Karnataka,46300,03-05-2022 09:01,03-05-2022 09:01,560097,India,Thindlu,M S Fitness Club
7130,"Anantha Sai Nilayam, Sachivalaya Colony - Vanasthalipuram","Ground Floor, Anantha Sai Nilayam, Government Hospital Road, Sachivalaya Colony, Near Huda Park, Vanasthalipuram",17.328865,78.57107,Hyderabad,Telangana,46300,03-05-2022 09:01,03-05-2022 09:01,500070,India,Vanasthalipuram,Sachivalaya Nagar Bus Stop
7131,"Ashiv CHSL, Sector 5 - Koparkhairane","Shop No. 7, Ground Floor, Ashiv CHSL, Plot No. 74, Sector No. 5, Koparkhairane Station Parking",19.103916,73.00954,Navi Mumbai,Maharashtra,46300,03-05-2022 09:01,03-05-2022 09:01,400709,India,Koparkhairane Station Parking,Koparkhairane Station Parking
7132,"Nanubhai Tower, Mehsana Nagar Road - Nizampura","Ground Floor, Nanubhai Tower, A-Wing, Mehsana Nagar Road, Near Dr.Hedgewar Garden, Shree Sai Baba Temple",22.337496,73.18454,Vadodara,Gujarat,46300,03-05-2022 09:01,03-05-2022 09:01,390002,India,Shree Sai Baba Temple,Shree Sai Baba Temple
7133,"MIGH Colony, Walker Town - Padmarao Nagar","Ground Floor, MIGH Colony, Walker Town, Padmarao Nagar Main Road, Near Manasa Nursing Home, Padmarao Nagar",17.425734,78.50677,Secunderabad,Telangana,46300,03-05-2022 09:01,03-05-2022 09:01,500025,India,Padmarao Nagar,Padmarao Nagar Park Bus Stop
7134,"Saideep Ramedi CHSL, Maulana Azad Road - Vasai (West)","Shop No. 1, C Wing, Ground Floor, Saideep Ramedi CHSL, Maulana Azad Road, Near Shani Mandir, Padrikhan Wadi, Ramedi, Vasai (West)",19.34669,72.802155,Thane,Maharashtra,46300,03-05-2022 09:01,03-05-2022 09:01,401201,India,"Ramedi, Vasai (West)",Phadke Ganpati mandir
7135,"Yashwant Pride, Kacheri Road - Vasai (West)","Shop No. 4, A Wing, Ground Floor, Yashwant Pride, Kacheri Road, Koliwada, Vasai Court Of Law",19.336824,72.807625,Thane,Maharashtra,46300,03-05-2022 09:01,03-05-2022 09:01,401201,India,Vasai Court Of Law,Vasai (West)
7136,"Amrutha Colony, Uppal - Swaroop Nagar","Plot No.66, Ground Floor, Amrutha Colony, Swaroop Nagar Road, Uppal, Swaroop Nagar",17.409988,78.573105,Hyderabad,Telangana,46300,03-05-2022 09:01,03-05-2022 09:01,500039,India,Swaroop Nagar,SIM Lion Fitness & Gym
7137,"Bhagwandas Apartments, Saath Rasta - Jacob Circle","Shop No. 06, Bhagwandas Building, 44, Keshavrao Khadye Marg, Saath Rasta, Jacob Circle, Mahalaxmi (East)",18.98081,72.8282,Mumbai,Maharashtra,46300,03-05-2022 09:01,03-05-2022 09:01,400011,India,Mahalaxmi (East),Jacob Circle
7138,"Baitul Aman, Nagpada Junction - Mumbai Central","Shop No. A/1, Baitul Aman Co-operative Housing Society Limited, 2, Maulana Azad Road, Nagpada Junction, Mumbai Central",18.96662,72.82848,Mumbai,Maharashtra,46300,03-05-2022 09:01,03-05-2022 09:01,400008,India,Mumbai Central,Nagpada Junction
7139,Unity Park CHSL - Agripada,"Shop No. 14, Unity Park CHSL, R. B. Chandorkar Marg, New Police Lines, Agripada",18.97595,72.82695,Mumbai,Maharashtra,46300,03-05-2022 09:01,03-05-2022 09:01,400011,India,Agripada,Agripada Sarvajanik Ganeshotsav Mandal
7140,"Kermani Building, Anand Estate, Chinchpokli - (West)","Shop No 26, 27, 28, 29 & 30, Kermani Building, Anand Estate, Arthur Road Junction, N M Joshi Marg, Jacob Circle, Chinchpokli (West)",18.98574,72.83143,Mumbai,Maharashtra,46300,03-05-2022 09:01,03-05-2022 09:01,400011,India,Chinchpokli (West),Arthur Naka
7141,"Police Ground, Garodia Nagar - Ghatkopar (East)","Shop No. 5, Nand Smruti, Plot No. 15, Vallabh Baug Lane Extn, Ghatkopar (East)",19.07735,72.91372,Mumbai,Maharashtra,46300,03-05-2022 09:01,03-05-2022 09:01,400077,India,Ghatkopar (East),Maharashtra State Police Sports Complex
7142,Rajawadi - Vidya Vihar (East),"Shop No. 5, Vihar Darshan, 7th Road, Rajawadi, Ghatkopar (East)",19.07724,72.89997,Mumbai,Maharashtra,46300,03-05-2022 09:01,03-05-2022 09:01,400077,India,Ghatkopar (East),Near Neelkanth Valley
7143,Panth Nagar - Ghatkopar (East),"Shop No. 5, A-Wing, Ground Floor, Namratashil CHSL, Building No. 4, Panth Nagar, 90 Feet Road, Ghatkopar (East)",19.08254,72.91314,Mumbai,Maharashtra,46300,03-05-2022 09:01,03-05-2022 09:01,400075,India,Ghatkopar (East),Siddhi Vinayak Temple
7144,Neelkanth Market - Ghatkopar (East),"Shop No. 8, Neelkant Market Co-Operative Housing Society Limited, M G Road, Rajawadi Colony, Ghatkopar (East)",19.08115,72.90416,Mumbai,Maharashtra,46300,03-05-2022 09:01,03-05-2022 09:01,400077,India,Ghatkopar (East),Neelkanth Market
7145,"Sahyadri Ground, Tilak Nagar - Chembur (West)","Shop No. 2, New Samrat, Samrat CHSL, Building No. 3, Off Tilak Nagar, Chembur (West)",19.0689,72.89888,Mumbai,Maharashtra,46300,03-05-2022 09:01,03-05-2022 09:01,400089,India,Chembur (West),Near Shayadhai Ground
7146,Collectors Colony - Chembur (East),"Shop No. 2, Ekjyot Satkar, Plot No-116, Collector Colony, Chembur (East)",19.04412,72.89126,Mumbai,Maharashtra,46300,03-05-2022 09:01,03-05-2022 09:01,400074,India,Chembur (East),Lakshmi Niwas CHSL
7147,Golf Course - Chembur (East),"Shop No. 9, Acharya Commercial CHS, Dr. Choitaram Gidwani Marg, Chembur (East)",19.04574,72.90216,Mumbai,Maharashtra,46300,03-05-2022 09:01,03-05-2022 09:01,400074,India,Chembur (East),Basant Cinema
7148,"Lal Maidan, Tilak Nagar - Chembur (East)","Shop No. 3, Building No. 67, A-Wing, Daya Sagar CHSL, Tilak Nagar, Chembur (East)",19.06695,72.89391,Mumbai,Maharashtra,46300,03-05-2022 09:01,03-05-2022 09:01,400089,India,Chembur (East),Lal Maidan
7149,Tilak Nagar - Kurla (East),"Shop No. 6, Kambodhini Co-operative Housing Society Limited, Building No 106, Road No. 13,  National Housing Bank, Tilak Nagar, Kurla (East)",19.07174,72.89704,Mumbai,Maharashtra,46300,03-05-2022 09:01,03-05-2022 09:01,400089,India,Kurla (East),National Housing Bank
7150,"Namah Shivay, Sindhi Society - Chembur (East)","Shop No. 9, Namah Shivay - (The Sindhi Immigrants CHSL), Plot No. 16 & 17, Sindhi Society, Chembur (East)",19.0531,72.89117,Mumbai,Maharashtra,46300,03-05-2022 09:01,03-05-2022 09:01,400071,India,Chembur (East),Acres Club
7151,"Paras Niketan Premises CHSL, Chheda Nagar, Chembur - (West)","Shop No. 8, Paras Niketan Premises CHSL, Plot No. 35, 38 and 39, Sector No.6, Chheda Nagar , Chembur (West)",19.06632,72.90513,Mumbai,Maharashtra,46300,03-05-2022 09:01,03-05-2022 09:01,400089,India,Chembur (West),Modern English School 
7152,Raikar Chambers A Wing - Govandi (East),"Shop No. 6 & 7, A-Wing, Raikar Chambers Premises CSL, Govandi Station Road, Near Jain Temple, Govandi (East)",19.05285,72.91562,Mumbai,Maharashtra,46300,03-05-2022 09:01,03-05-2022 09:01,400088,India,Govandi (East),HDFC Bank
7153,"Sabari Samriddhi Premises, V.N. Purav Marg - Chembur (East)","Shop No. 5 & 6, Sabari Samriddhi Premises CHSL, Plot No.10, CTS No. 619/18, V.N. Purav Marg, S.T.Road, Chembur (East)",19.04892,72.90628,Mumbai,Maharashtra,46300,03-05-2022 09:01,03-05-2022 09:01,400071,India,Chembur (East),Maitri Park MSRTC Bus Stop
7154,"Stella Sapphire, Sahakar Nagar - Chembur (East)","Shop No. 1/2/3, A Wing, Stella Sapphire, The Chembur Crystal CHSL, Sahakar Nagar, Road No. 3, MHADA Colony, Chembur (East)",19.06268,72.89209,Mumbai,Maharashtra,46300,03-05-2022 09:01,03-05-2022 09:01,400071,India,Chembur (East),Nana Nani Park
7155,"Chembur Colony, Inlaks Hospital Road - Chembur (East)","Shop No. 46, Chembur Colony, Inlaks Hospital Road, Chembur (East)",19.04642,72.89469,Mumbai,Maharashtra,46300,03-05-2022 09:01,03-05-2022 09:01,400074,India,Chembur (East),Jai Santoshi Mata Mandir
7156,"Keshav Heights, Parsik Nagar - Kalwa (West)","Bldg. No. B, Keshav Heights, Parsik Nagar, Kalwa (West)",19.20686,73.00505,Thane,Maharashtra,46300,03-05-2022 09:01,03-05-2022 09:01,400605,India,Kalwa (West),Vaishnavi Dham Complex
7157,"Prabhat Sadan, R. B. Chandorkar Marg - Agripada","Shop No.1, Prabhat Sadan Building, R. B. Chandorkar Marg, Agripada",18.97713,72.82393,Mumbai,Maharashtra,46300,03-05-2022 09:01,03-05-2022 09:01,400011,India,Agripada,Agripada Police Station
7158,"Brijdham, SBI Staff Colony - Basaveshwarnagar","Property No. 751/766, 3rd stage, 4th Block, 8th Main Road, SBI Staff Colony,, Basaveshwarnagar",12.992043,77.5359,Bengaluru,Karnataka,46300,03-05-2022 09:01,03-05-2022 09:01,560079,India,Basaveshwarnagar,St Mira's High School
7159,"L N Arcade, 1st Stage - Arekere","Ground Floor, L N Arcade, Arekere Mico Layout, 1st stage, Brigade Millenium Road, Arekere",12.890989,77.59487,Bengaluru,Karnataka,46300,03-05-2022 09:01,03-05-2022 09:01,560076,India,Arekere,Vijaya Children's Clinic
7160,"S V Towers, HMT Layout - Vidyaranyapura","Ground Floor, S V Towers, Vidyaranyapura Main Road, HMT Layout, Near Sri Rama Mandir, Vidyaranyapura",13.08413,77.56034,Bengaluru,Karnataka,46300,03-05-2022 09:01,03-05-2022 09:01,560097,India,Vidyaranyapura,Vidyaranyapura Bus Terminal
7161,"Srinivasa Building, ITI Layout - Sarakki","Ground Floor, Srinivasa Building, 9th Cross Road, ITI Layout, 1st Phase, J P Nagar, Sarakki",12.911001,77.57872,Bengaluru,Karnataka,46300,03-05-2022 09:01,03-05-2022 09:01,560078,India,Sarakki,Indiragandhi Circle Bus Stop
7162,"Chitrala House, Devi Nagar Colony - Kavadiguda","Shop No.3, Ground Floor, Chitrala House, Kavadiguda Road, Devi Nagar Colony, Bansilalpet, Kavadiguda",17.42434,78.49118,Secunderabad,Telangana,46300,03-05-2022 09:01,03-05-2022 09:01,500080,India,Kavadiguda,Indian Oil Petrol Pump
7163,"Vijay Bank Ln, Balaji Residency - Chaitanyapuri","Ground Floor, Vijay Bank Ln, Near Balaji Residency, L.B Nagar Circle, Chaitanyapuri",17.371447,78.53195,Hyderabad,Telangana,46300,03-05-2022 09:01,03-05-2022 09:01,500060,India,Chaitanyapuri,Genius Grammar High School
7164,"Adarsh Towers, Lal Bahadur Colony - Trimulgherry","Shop No. 1, Ground Floor, Adarsh Towers, All Saint Road, Lal Bahadur Colony, Trimulgherry",17.470648,78.505226,Secunderabad,Telangana,46300,03-05-2022 09:01,03-05-2022 09:01,500015,India,Trimulgherry,Telengana Grameena Bank
7165,"Silver Business Point, Green Road - Uttran","Shop No. 100, Ground Floor, Silver Business Point CSL, Green Road, Opp. Royal Square, Near VIP Circle, Uttran",21.23366,72.86273,Surat,Gujarat,46300,03-05-2022 09:01,03-05-2022 09:01,394105,India,"Near VIP Circle, Uttran",Silver Multispeciality Hospital
7166,"Shree Matha Building, 5th Main Road - RPC Layout","Ground Floor, Property No. 216, Shree Matha Building, 5th Main Road, Hampinagar, RPC Layout",12.964318,77.5404,Bengaluru,Karnataka,46300,03-05-2022 09:01,03-05-2022 09:01,560104,India,RPC Layout,V Infinity Dance Studio
7167,"Sampad Woods, Somnath Farm Road - Koteshwar","Shop No. 7, Ground Floor, Sampad Woods, Somnath Farm Road, Beside Hind Supermarket, Koteshwar",23.101639,72.6145,Ahmedabad,Gujarat,46300,03-05-2022 09:01,03-05-2022 09:01,382424,India,Koteshwar,Dev Tranquil Bus Stop
7168,"Moreshwar Dham CHSL, Sector 19 -  Kamothe","Shop No. 1, Moreshwar Dham CHSL, Sector 19, Kamothe, null",19.01232,73.09188,Navi Mumbai,Maharashtra,46300,03-05-2022 09:01,03-05-2022 09:01,410209,India,null,null
7169,"The Springs CHSL, Sector 20 - Kalamboli","Shop No.3, Ground Floor, The Springs CHSL, Plot No. 4, Sector20, Roadpali Main Road, Tithee Banquets",19.036804,73.08918,Navi Mumbai,Maharashtra,46300,03-05-2022 09:01,03-05-2022 09:01,410218,India,Tithee Banquets,Tithee Banquets
7170,"Bhagwati Heritage CHSL, Sector 21 - Kamothe","Shop No.1, Bhagwati Heritage CHSL, Sector 21, Greater Khanda Link Road, Near Dharti Heights, Care And Cure Hospital",19.012897,73.096344,Navi Mumbai,Maharashtra,46300,03-05-2022 09:01,03-05-2022 09:01,410209,India,Care And Cure Hospital,Care And Cure Hospital
7171,"Western Avenue CHSL, K1 Building - Wakad","Shop No. 12 & 13, Building K1, Western Avenue CHSL, Western Avenue Internal Road, Near Sayaji Hotel, Wakad",18.60164,73.75543,Pune,Maharashtra,46300,03-05-2022 09:01,03-05-2022 09:01,411057,India,Wakad,Phoenix Millennium Mall
7172,"Balapur X Road, SLNS Colony - Meerpet","1st Floor, Balapur X Road, RCI Road, SLNS Colony, Near Delhi Mithai Wala, Meerpet",17.321917,78.52005,Hyderabad,Telangana,46300,03-05-2022 09:01,03-05-2022 09:01,500097,India,Meerpet,S.V. Multi Specialty Hospital
7173,"Sky Oasis CHSL, Sector 9 - Ulwe","Shop No.15, Sky Oasis CHSL, Sector 9, Jai Bhavani Rd, Ulwe, Ulwe",18.972982,73.020096,Navi Mumbai,Maharashtra,46300,03-05-2022 09:01,03-05-2022 09:01,410206,India,Ulwe,null
7174,"Callisto, Sector 17 - Ulwe","Shop No. 7, Callisto, Sector 17, Aamar Marg, Ulwe, Ulwe",18.961088,73.02105,Navi Mumbai,Maharashtra,46300,03-05-2022 09:01,03-05-2022 09:01,410206,India,Ulwe,null
7175,"Suyash Park CHSL, Sector 23 - Ulwe","Shop No. 31, Suyash Park CHSL, Sector 23, Ulwe",18.980595,73.0337,Navi Mumbai,Maharashtra,46300,03-05-2022 09:01,03-05-2022 09:01,410206,India,Ulwe,Sai Harmony
7176,"Narayan Enclave, Sector 5 - Ulwe","Shop No. 1, Narayan Enclave, Sector 5, Ulwe",18.981297,73.0244,Navi Mumbai,Maharashtra,46300,03-05-2022 09:01,03-05-2022 09:01,410206,India,Ulwe,Pragati Bus Stop
7177,"Vinayak Avadh, Sector 3 - Karanjade","Shop No. 4, Ground Floor, Vinayak Avadh, Plot No. 72, Sector-3, Near ESIC Office, Karanjade",18.98143,73.10278,Navi Mumbai,Maharashtra,46300,03-05-2022 09:01,03-05-2022 09:01,410206,India,Karanjade,College Fata Bus Stop
7178,"Munot Residency, HOC Colony - Panvel","Shop No. 1, A-Wing, Munot Residency, Old Phane Naka Road, HOC Colony, Panvel",18.998476,73.10748,Panvel,Maharashtra,46300,03-05-2022 09:01,03-05-2022 09:01,410206,India,"HOC Colony, Panvel",Equitas Small Finance Bank
7179,"National Palace CHSL, Takka Road - Panvel","Shop No. 18, D Wing, National Palace CHSL, Takka Road, Takka Colony, Panvel",18.979599,73.117096,Panvel,Maharashtra,46300,03-05-2022 09:01,03-05-2022 09:01,410206,India,Panvel,Cosmopolitan Co.op Hsg Society
7180,"Sarita Chambers, Bibwewadi Kondhwa Road - Munjeri","Shop No. 2, Sarita Chambers Condominium, New Era CHSL, , Bibwewadi Kondhwa Road, Gultekdi, Munjeri",18.481419,73.875145,Pune,Maharashtra,46300,03-05-2022 09:01,03-05-2022 09:01,411037,India,Munjeri,Gangadham Bus Stop
7181,"Daivik Arcade, Dwarakasava Road - Bharat Nagar","Daivik Arcade, Ground Floor, Dwarakasava Road, BEL Layout, Phase 2, Herohalli, Bharat Nagar",12.981791,77.4821,Bengaluru,Karnataka,46300,03-05-2022 09:01,03-05-2022 09:01,560091,India,Bharat Nagar,Manjunatha Nagara Bus Stop
7182,"Raj Imperia, Vraj Chowk - Simada","Shop No. 17, Ground Floor, Raj Imperia, Vraj Chowk, Nana Varachha, Simada",21.223297,72.90297,Surat,Gujarat,46300,03-05-2022 09:01,03-05-2022 09:01,395006,India,Simada,Sarthana Police Station
7183,"Hyde Park CHSL, Sector 35G - Kharghar","Shop No. 1, Hyde Park CHSL, Plot No. 8, Sector 35G, Kharghar",19.071186,73.06894,Navi Mumbai,Maharashtra,46300,03-05-2022 09:01,03-05-2022 09:01,410210,India,Kharghar,Shri Ganesh Temple
7184,"Skylark CHSL, Sector 6 - Kharghar","Shop No. 1, Skylark CHSL, Sector 6, Kharghar",19.044487,73.06316,Navi Mumbai,Maharashtra,46300,03-05-2022 09:01,03-05-2022 09:01,410210,India,Kharghar,Allahbad Bank
7185,"Valley Shilp CHSL, Sector 36 - Kharghar","Shop No. 02, Building No. M-6, Valley Shilp CHSL, Plot No. 3, Sector - 36, Kharghar",19.078733,73.07502,Navi Mumbai,Maharashtra,46300,03-05-2022 09:01,03-05-2022 09:01,410210,India,Kharghar,Valley Shilp
7186,"Devdarshan Apartment, Sector 11 - Nerul","Shop No. 1, F-2, Devdarshan Apartment Owners Association, Sector 11, Nerul",19.038895,73.02019,Navi Mumbai,Maharashtra,46300,03-05-2022 09:01,03-05-2022 09:01,400706,India,Nerul,Bhawani Chowk
7187,"Kalash Sankalp CHSL, Sector 20 - Nerul","Shop No. 8, Kalash Sankalp CHSL, Plot No. C-3, 4, & C?27 to 30, Sector 20, Nerul",19.036673,73.013145,Navi Mumbai,Maharashtra,46300,03-05-2022 09:01,03-05-2022 09:01,400706,India,Nerul,Gaondevi Mandir Chowk
7188,"Sea Spring, Sector 06 - Nerul","Shop No. 1, 2, 3 & 4, Sea Spring , Plot No. 215 and 216, Sector 06, Sarsole, Nerul",19.04088,73.00971,Navi Mumbai,Maharashtra,46300,03-05-2022 09:01,03-05-2022 09:01,400706,India,Nerul,Sarsiole Gaon
7189,"Somdatta CHSL, Sector 15 - Sanpada","Shop No.B-1, B-2, B-3, B-4, Somdatta CHSL, Plot No. 6, Sector - 15, Sanpada",19.060839,73.00503,Navi Mumbai,Maharashtra,46300,03-05-2022 09:01,03-05-2022 09:01,400705,India,Sanpada,Chaurang CHSL
7190,"Vinay Vedanta, Sector 04 - Sanpada","Shop No. 1 & 2, Vinay Vedanta, Plot No. 23 Sector ? 04, Sanpada",19.066156,73.013,Navi Mumbai,Maharashtra,46300,03-05-2022 09:01,03-05-2022 09:01,400705,India,Sanpada,Gaon Devi Maidan
7191,"Mausam CHSL, Sector 28, Vashi","Shop No. 11, Mausam CHSL, Plot No.285, Sector 28, Vashi",19.088774,73.00869,Navi Mumbai,Maharashtra,46300,03-05-2022 09:01,03-05-2022 09:01,400705,India,Vashi,Kotak Mahindra Bank
7192,"Shiv Centre Premises CSL, Sector 17 - Vashi","Shop No. 29 & 30, Shiv Centre Premises CHSL, Plot No. 72, Sector 17, Vashi",19.073414,73.00172,Navi Mumbai,Maharashtra,46300,03-05-2022 09:01,03-05-2022 09:01,400705,India,Vashi,Arenja Corner
7193,"Central Park, Road Number 16 - Manikonda Jagir","Shop No. 3, Ground Floor, Central Park, Road Number 16, Alkapur Township, Manikonda Jagir",17.393589,78.36498,Hyderabad,Telangana,46300,03-05-2022 09:01,03-05-2022 09:01,500089,India,Manikonda Jagir,Netaji Park
7194,"Kingston Avenue, Vibgyor School Road - Pimple Saudagar","Shop No. 12, Ground Floor, Commercial Wing, Kingston Avenue, Plot - A, Vibgyor School Road, Opp Hotel Govind Garden, Pimple Saudagar",18.596983,73.80206,Pune,Maharashtra,46300,03-05-2022 09:01,03-05-2022 09:01,411027,India,Pimple Saudagar,Govind Garden Bus Stop
7195,"Rukmani Mansion, 9th Cross Road - NR Colony","Ground Floor, Rukmani Mansion, 9th cross road, Basavanagudi, NR Colony",12.93703,77.568596,Bengaluru,Karnataka,46300,03-05-2022 09:01,03-05-2022 09:01,560019,India,NR Colony,Rama Mandira Kalyana Mantapa
7196,"Roshni Manor, Shanthi Layout Main Road - Ramamurthy Nagar","Site No.54, Ground Floor, Roshni Manor, Shanthi Layout Main Road, Akshya Nagar,, Ramamurthy Nagar",13.020128,77.684326,Bengaluru,Karnataka,46300,03-05-2022 09:01,03-05-2022 09:01,560016,India,Ramamurthy Nagar,Udupi Sagar Restaurant
7197,"Whitefield Main Road, Thigalarapalya - Hoodi","Property No. 194/4, Ground Floor, Whitefield Main Road, Near Bharat Petrol Pump, Thigalarapalya, Hoodi",12.991547,77.72094,Bengaluru,Karnataka,46300,03-05-2022 09:01,03-05-2022 09:01,560048,India,Hoodi,Rajapalya Bus Stop
7198,"Aura Shivaay, Ramakaka Road - Channi","Shop No. 1/1, Ground Floor, Tower No A, Aura Shivaay, Behind Satyam Hospital, Ramakaka Road, Channi",22.35656,73.16783,Vadodara,Gujarat,46300,03-05-2022 09:01,03-05-2022 09:01,391740,India,Channi,Satyam Apartments
7199,"99 Shopping Centre, Sayan Road - Amroli","Shop No. G-3, Ground Floor, 99 Shopping Centre, Sayan Road, Amroli",21.242395,72.851875,Surat,Gujarat,46300,03-05-2022 09:01,03-05-2022 09:01,394107,India,Amroli,Bansari Hospital
7200,"Jivram Plaza, Bhairavnath Road - Maninagar","Shop No. 8 & 9, Ground Floor, Jivram Plaza, Bhairavnath Road, Near Hirabhai Kanya Vidyalaya, Maninagar",22.995167,72.60141,Ahmedabad,Gujarat,46300,03-05-2022 09:01,03-05-2022 09:01,380008,India,Maninagar,Vallabh Wadi Bus Stop
7201,"Tulsi Arcade, Sudama Chowk - Mota Varachha","Shop No.1, Ground Floor, Tulsi Arcade, Mota Varachha Main Road, Sudama Chowk, Mota Varachha",21.23893,72.88017,Surat,Gujarat,46300,03-05-2022 09:01,03-05-2022 09:01,395006,India,Mota Varachha,The Friday Cinema 
7202,"Vraj Complex, Alembic Road - Gorwa","Shop No. 3, Ground Floor, Vraj Complex, Near BIDC, Alembic Road, Gorwa",22.328508,73.16202,Vadodara,Gujarat,46300,03-05-2022 09:01,03-05-2022 09:01,390016,India,Gorwa,Shell Petrol Pump
7203,"Ms Lokaiah Patel Complex, High Tension Road - Kukatpally","Shop No.1, Ground Floor, Ms Lokaiah Patel Complex, Sai Baba Nagar Colony, High Tension Road, Phase 1, Kukatpally",17.489168,78.420525,Hyderabad,Telangana,46300,03-05-2022 09:01,03-05-2022 09:01,500072,India,Kukatpally,AyushNidhi Ayurvedic Hospital
7204,"B.S.E.S Friends CHSL, Gorai 3 - Borivali (West)","Shop No. 16, B.S.E.S Friend's CHSL, Lokmanya Tilak Road, Gorai 3, Borivali (West)",19.232565,72.82855,Mumbai,Maharashtra,46300,03-05-2022 09:01,03-05-2022 09:01,400092,India,Borivali (West),Shantidhaan Ashram
7205,"Everest Hub, Gotri Laxmipura Road - Gotri","Shop No. GF-1, Ground Floor, Everest Hub, Gotri Laxmipura Road, Opp. Narayan Garden, Gotri",22.327541,73.133995,Vadodara,Gujarat,46300,03-05-2022 09:01,03-05-2022 09:01,390021,India,Gotri,Narayan Garden Bus Stop
7206,"Herms Centre, Rahim Shaikh Road - Yerawada","Shop No. 11C, Hermes Centre CSL, Rahim Shaikh Road, Shastri Nagar, Yerawada",18.5555,73.89698,Pune,Maharashtra,46300,03-05-2022 09:01,03-05-2022 09:01,411006,India,Yerawada,Gangaram Karne Hospital
7207,"Freny Arcade, Station Road - Nalasopara (West)","Shop No. 1, Ground Floor, Freny Arcade, Samelpada, Station Road, Nalasopara (West)",19.418476,72.801506,Thane,Maharashtra,46300,03-05-2022 09:01,03-05-2022 09:01,401203,India,Nalasopara (West),Sopara English School
7208,"Thum Sundar Nilayam, Moosapet Cross Road - Moosapet","Ground Floor, Thum Sundar Nilayam, Moosapet Cross Road, Near Panchaseela School, Moosapet",17.469732,78.42686,Hyderabad,Telangana,46300,03-05-2022 09:01,03-05-2022 09:01,500018,India,Moosapet,Manasa Dental Care
7209,"A R Enclave, Santosh Nagar Colony - Mehdipatnam","Shop No. 1, Ground Floor, A R Enclave, Santosh Nagar Colony, Mehdipatnam",17.390312,78.437996,Hyderabad,Telangana,46300,03-05-2022 09:01,03-05-2022 09:01,500028,India,Mehdipatnam,Annapurna Boys Hostel
7210,"Rajmahal Colony, Manik Bagh Road - Nai Duniya","Ground Floor, Plot No.9, Rajmahal Colony, Manik Bagh Road, Nai Duniya",22.699339,75.8514,Indore,Madhya Pradesh,46300,03-05-2022 09:01,03-05-2022 09:01,452007,India,Nai Duniya,Castlewood International Preschool
7211,"Dharma Angan, Sector B - Vasant Vihar Colony","Shop No. 1, Ground Floor, Dharma Angan, Block - E, Sector B, Vasant Vihar Colony",22.758139,75.901436,Indore,Madhya Pradesh,46300,03-05-2022 09:01,03-05-2022 09:01,452010,India,Vasant Vihar Colony,The Homoeopathy Clinic
7212,Kesar Bagh Road - Indralok Colony,"Ground Floor, Plot No 8, Indralok Colony, Keshar Bagh Road, Nai Duniya",22.69504,75.844086,Indore,Madhya Pradesh,46300,03-05-2022 09:01,03-05-2022 09:01,452009,India,Nai Duniya,Pushpak Apartment
7213,"Emerald Business Park, Palsikar Colony - Nai Duniya","Shop No. G-1, Ground Floor, Emerald Business Park, Palsikar Colony, Khandwa - Indore Road, Nai Duniya",22.708168,75.855446,Indore,Madhya Pradesh,46300,03-05-2022 09:01,03-05-2022 09:01,452007,India,Nai Duniya,H.J. Memorial Hospital
7214,"Sector E, Hawa Bangala Road - Sudama Nagar","Ground Floor, Plot No. 2551, Sector E, Hawa Bangala Road, Sudama Nagar",22.690771,75.82624,Indore,Madhya Pradesh,46300,03-05-2022 09:01,03-05-2022 09:01,452009,India,Sudama Nagar,Footi Kothi Park Bus Stop
7215,Main Road 1 - Malviya Nagar,"Ground Floor, Building No. 47/A, Main Road 1, Near Gammon Mall, Malviya Nagar",23.233406,77.40339,Bhopal,Madhya Pradesh,46300,03-05-2022 09:01,03-05-2022 09:01,462003,India,Malviya Nagar,Nanke Petrol Pump Bus Stop
7216,"Shankaracharya Nagar, BHEL Sangam Colony - Bagmugaliya","Ground Floor, Plot no. 35, Shankaracharya Nagar, Baghsevaniya, BHEL Sangam Colony, Bagmugaliya",23.192625,77.4637,Bhopal,Madhya Pradesh,46300,03-05-2022 09:01,03-05-2022 09:01,462043,India,Bagmugaliya,Mahadev Temple
7217,"Fortune Soumya Atlantis Arcade, Tribhuwam Vihar - Bagli","Shop No. 8, Ground Floor, Fortune Soumya Atlantis Arcade, Katara Hills Barrai Road, Tribhuwam Vihar, Bagli",23.17138,77.50173,Bhopal,Madhya Pradesh,46300,03-05-2022 09:01,03-05-2022 09:01,462026,India,Bagli,Krishna Heights Bus Stop
7218,"DB House, Arera Colony - Basant Kunj","Ground Floor, DB House, Central Railway Employees CHSL, Arera Colony, Basant kunj",23.20122,77.43703,Bhopal,Madhya Pradesh,46300,03-05-2022 09:01,03-05-2022 09:01,462039,India,Basant kunj,Swift Fitness Club And Gym
7219,"Regiment Road, Niyamatpura - Shahjahanabad","Shop No. 1, Ground Floor, Plot No. 50 , Regiment Road, Niyamatpura, Shahjahanabad",23.270338,77.39426,Bhopal,Madhya Pradesh,46300,03-05-2022 09:01,03-05-2022 09:01,462001,India,Shahjahanabad,Durga Mandir
7220,"Green Valley CHSL, Bhakt Vallabh Dhola Marg - Maninagar","Shop No. 4, Green Valley CHSL, Aastha Properties, Bhakt Vallabh Dhola Marg, Near Kankariya Football Ground, Maninagar",23.006021,72.59376,Ahmedabad,Gujarat,46300,03-05-2022 09:01,03-05-2022 09:01,380022,India,Maninagar,Sukh Shanti Bhavan
7221,"Vertical Alcinia, Katraj Hadapsar Bypass Road - Mohammedwadi","Shop No. 9, Ground Floor, Vertical Alcinia Phase-1, Project A, Katraj Hadapsar Bypass Road, Mohammedwadi",18.466532,73.91856,Pune,Maharashtra,46300,03-05-2022 09:01,03-05-2022 09:01,411060,India,Mohammedwadi,Shell Petrol Pump
7222,"Om Platinum, Karandiikar Road - Sadashiv Peth","Shop No. 1, Ground floor, Om Platinum, Karandiikar Road, Near Bharat Natya Mandir, Sadashiv Peth",18.510597,73.848885,Pune,Maharashtra,46300,03-05-2022 09:01,03-05-2022 09:01,411030,India,Sadashiv Peth,Domino's Pizza
7223,"Sri Devi Complex, Kakatiya Hills - Pragathi Nagar","Shop No. 1 & 2, Ground Floor, Sri Devi complex, Pragathi Nagar Road, Kakatiya Hills, ALEAP Industrial Area, Pragathi Nagar",17.527866,78.39476,Hyderabad,Telangana,46300,03-05-2022 09:01,03-05-2022 09:01,500090,India,Pragathi Nagar,Pragathi Nagar Bus Stop
7224,"Shiv Sai Vishwa CHSL, Shiv Sai Lane - Pimple Saudagar","Shop No. 2, A1 Building, Shiv Sai Vishwa CHSL, Shiv Sai Lane, Pimple Saudagar",18.598919,73.796036,Pune,Maharashtra,46300,03-05-2022 09:01,03-05-2022 09:01,411027,India,Pimple Saudagar,Challenger Public School
7225,"H. Munisway Sankirna Building, MEI Colony - Peenya","Ground Floor, H. Munisway Sankirna Building, Property No. 16, MEI Colony, Preethi Nagar, Phase 3, Peenya",13.018693,77.520065,Bengaluru,Karnataka,46300,03-05-2022 09:01,03-05-2022 09:01,560058,India,Peenya,Laggere Main Road
7226,"Outer Ring Road, Kampegowda Layout - Laggere","Ground Floor, Outer Ring Road, Chowdeshwari Nagar, Kampegowda Layout, Laggere",12.99955,77.52467,Bengaluru,Karnataka,46300,03-05-2022 09:01,03-05-2022 09:01,560058,India,Laggere,9th Cross Road
7227,"Sriranga, 24th Cross Road - Kumaraswamy Layout","Shop No. 01, Ground Floor, Sriranga, 24th Cross Road, 1st Stage, Kumaraswamy Layout",12.907178,77.56025,Bengaluru,Karnataka,46300,03-05-2022 09:01,03-05-2022 09:01,560078,India,Kumaraswamy Layout,Kumarswamy Layout Nursery
7228,"Sri Gurukrupa MM Complex, Ramamurthy Nagar - NRI Layout","Ground Floor, Sri Gurukrupa MM Complex, NRI Layout Main Road, Ramamurthy Nagar, NRI Layout",13.025365,77.67911,Bengaluru,Karnataka,46300,03-05-2022 09:01,03-05-2022 09:01,560016,India,NRI Layout,Brethren Church
7229,"Kalash CHSL, Shlok Road - Chandkheda","Shop No. A2, Ground Floor, Block A, Kalash CHSL, Behind Satymev Hospital, Shlok Road, Chandkheda",23.11852,72.574974,Ahmedabad,Gujarat,46300,03-05-2022 09:01,03-05-2022 09:01,382424,India,Chandkheda,Diamond 27 Apartment
7230,"Maharathi CHSL, Madhav Udhyan Road - Naroda","Shop No. 3, Maharathi CHSL, Madhav Udhyan Road, Pulin Society Part 2, Naroda",23.06782,72.65217,Ahmedabad,Gujarat,46300,03-05-2022 09:01,03-05-2022 09:01,382330,India,Naroda,Government Gym
7231,"Padmashree Building, Mariyappanapalya Main Road - Gnana Bharathi"," Ground Floor, Padmashree Building, Mariyappanapalya Main Road, 1st Block, Shivu Layout, Gnana Bharathi",12.944777,77.49931,Bengaluru,Karnataka,46300,03-05-2022 09:01,03-05-2022 09:01,560056,India,Gnana Bharathi,Royal Public School
7232,"Ganga Business Hub, Gotri Road - Gotri","Shop No. 1, Ground Floor, Ganga Business Hub, Near Gayatri Party Plot, Gotri Road, Gotri",22.317585,73.13174,Vadodara,Gujarat,46300,03-05-2022 09:01,03-05-2022 09:01,390021,India,Gotri,Benjamin World School
7233,Vinayak Nagar Colony - Mansoorabad,"Ground Floor, Vinayak Nagar Colony, Mansoorabad Road, Next to Sai Colony, Mansoorabad",17.3528,78.562164,Hyderabad,Telangana,46300,03-05-2022 09:01,03-05-2022 09:01,500068,India,Mansoorabad,Mansoorabad 1 Bus Stop
7234,"DIG Bungalow, Green Park Colony - Jamalpura","Shop No. 1, Ground Floor, DIG Bungalow, Sector B, Green Park Colony, Berasia Road, Jamalpura",23.27822,77.40354,Bhopal,Madhya Pradesh,46300,03-05-2022 09:01,03-05-2022 09:01,462001,India,Jamalpura,DIG Bunglow Bus Stop
7235,"Vedraj CSL, Alok Road - Vastral","Shop No. 8, Vedraj CSL, Beside Akshardham Residency, Alok Road, RAF Camp, Vastral",22.993343,72.664185,Ahmedabad,Gujarat,46300,03-05-2022 09:01,03-05-2022 09:01,382418,India,"RAF Camp, Vastral",Meldi Mata Mandir
7236,"United Apartments CHSL, East Street - Pune Cantonment","Shop No. 7, United Apartments CHSL, General Thimayya Road, East Street, Pune Cantonment",18.507801,73.87925,Pune,Maharashtra,46300,03-05-2022 09:01,03-05-2022 09:01,411001,India,Pune Cantonment,Poona Motors Pvt Ltd
7237,"Dharmnandan House, Satellite road - Motavarachha","Ground Floor, Dharmnandan Row House - B, Satellite Road, Motavarachha",21.235907,72.88349,Surat,Gujarat,46300,03-05-2022 09:01,03-05-2022 09:01,394101,India,Motavarachha,Shree Hari Hospital
7238,"Sai Ashish Trade Center, Vip Road - Vesu","Shop No. 35, Ground Floor, Sai Ashish Trade Center, Vip Road, Bhimrad, Vesu",21.138445,72.79624,Surat,Gujarat,46300,03-05-2022 09:01,03-05-2022 09:01,395007,India,Vesu,Bhagvan Mahavir College
7239,"Manik Moti, Chhatrapati Shivaji Maharaj Road - Budhwar Peth","Shop No. 1, Manik Moti, Chhatrapati Shivaji Maharaj Road, Jijamata Chowk, Budhwar Peth",18.518015,73.856285,Pune,Maharashtra,46300,03-05-2022 09:01,03-05-2022 09:01,411002,India,Budhwar Peth,Vasant Takies-1 Bus Stop
7240,"HDD Arcade, Hosahalli Main Road - Hunasamaranahalli","Ground Floor, HDD Arcade, Hosahalli Main Road, Near Sai Swetha Grand Hotel, Hunasamaranahalli",13.143823,77.6192,Bengaluru,Karnataka,46300,03-05-2022 09:01,03-05-2022 09:01,562157,India,Hunasamaranahalli,Aahar Hotel
7241,"Western Business Park, Udhana Magdalla Road - Vesu","Shop No. 2, Ground Floor, Western Business Park, Udhana-Magdalla Road, Vesu",21.151602,72.773224,Surat,Gujarat,46300,03-05-2022 09:01,03-05-2022 09:01,395007,India,Vesu,J H Ambani Saraswati Vidyamandir
7242,"Abhilasha CHSL, Porwal Road - Lohegaon","Shop No. 6, Abhilasha CHSL, Porwal Road, Lohegaon",18.60772,73.91086,Pune,Maharashtra,46300,03-05-2022 09:01,03-05-2022 09:01,411047,India,Lohegaon,Vashi Gymkhana
7243,"Aditya Avenue, Airport Road - Bairagarh","Shop No. 14, Ground Floor, Aditya Avenue, Laukhedi, Airport Road, Bairagarh",23.286583,77.35412,Bhopal,Madhya Pradesh,46300,03-05-2022 09:01,03-05-2022 09:01,462030,India,Bairagarh,Manan Child Care Hospital
7244,Adarsh Nagar Colony - Peerzadiguda Road,"Ground Floor, Plot No. 6, Adarsh Nagar Colony, Peerzadiguda Road, Near Krishnaveni School, Peerzadiguda",17.3923,78.59752,Hyderabad,Telangana,46300,03-05-2022 09:01,03-05-2022 09:01,500039,India,Peerzadiguda,Kamala Maternity Center
7245,"N J Naidu Complex, KPHB Colony - Kukatpally","Shop No. G1, Ground Floor, N J Naidu Complex, KPHB Colony, Phase 3, Andra Bank Road, Kukatpally",17.48629,78.394966,Hyderabad,Telangana,46300,03-05-2022 09:01,03-05-2022 09:01,500072,India,Kukatpally,Ravindra Bharathi School
7246,"Pooja Complex, Ullal Village Main Road - Jnana Ganga Nagar","Ground Floor, Pooja Complex, Ullal Village Main Road, Jnana Ganga Nagar, Ullal",12.951935,77.49938,Bengaluru,Karnataka,46300,03-05-2022 09:01,03-05-2022 09:01,560056,India,Ullal,University Quarters Bus Stop
7247,"Barton Square, Immadihalli Main Road - Whitefield","Ground Floor, Barton Square, Immadihalli Main Road, Sathya Sai Layout, Whitefield",12.969837,77.75119,Bengaluru,Karnataka,46300,03-05-2022 09:01,03-05-2022 09:01,560066,India,Whitefield,Sai Childrens Clinic
7248,"Suvarna Arcade, 7th main Road - Nagarabhavi","Ground Floor, Suvarna Arcade, 7th Main Road, Vinayaka Layout, 2nd Stage, Nagarabhavi",12.962372,77.51104,Bengaluru,Karnataka,46300,03-05-2022 09:01,03-05-2022 09:01,560072,India,Nagarabhavi,Cosmic Health Center
7249,"Punyaai, Scheme 54 Road - Vijay Nagar","Shop No. 2, Ground Floor, Punyaai, Scheme 54 Road, Near Soft Vision College, Vijay Nagar",22.75488,75.88604,Indore,Madhya Pradesh,46300,03-05-2022 09:01,03-05-2022 09:01,452010,India,Vijay Nagar,Omkar Girls PG
7250,"The Sun Southpark CHSL, Gala Gymkhana Road - Bopal","Shop No. 8, Ground Floor, Block A, The Sun Southpark CHSL, Gala Gymkhana Road, Bopal",23.017088,72.47415,Ahmedabad,Gujarat,46300,03-05-2022 09:01,03-05-2022 09:01,380058,India,Bopal,Dr. Shrenik Zaveri Dental Clinic
7251,"Aura Square, Gorwa Refinery Road - Panchvati","Shop No. S3, Ground Floor, Aura Square, Gorwa Refinery Road, Panchvati, Gorwa",22.339571,73.14728,Vadodara,Gujarat,46300,03-05-2022 09:01,03-05-2022 09:01,390016,India,Gorwa,Panchvati Gorwa Bus Stop
7252,"Mangal Nagar Society, Mangal Nagar Main Road - Sukhliya","Ground Floor, Mangal Nagar Society, Mangal Nagar Main Road, Sukhliya",22.75687,75.86992,Indore,Madhya Pradesh,46300,03-05-2022 09:01,03-05-2022 09:01,452010,India,Sukhliya,Mangal Parisar Marriage Garden
7253,B R Towers - Malharganj,"Ground Floor, B R Towers, Malhar Ganj Lane, Malharganj",22.720987,75.84515,Indore,Madhya Pradesh,46300,03-05-2022 09:01,03-05-2022 09:01,452002,India,Malharganj,Shiv Mandir
7254,"Kalyan Society, Nizamuddin Road - Sachidanand Nagar","Ground Floor, Kalyan Society, Sachidanand Nagar, Nizamuddin Road, Ayodhya Nagar",23.262985,77.46444,Bhopal,Madhya Pradesh,46300,03-05-2022 09:01,03-05-2022 09:01,462022,India,Ayodhya Nagar,Anant Gyan Library
7255,"Vraj Vihar 3, Prenatirth Derasar Road - Satellite","Shop No. 12, Ground Floor, Vraj Vihar-3, Mahasukhnagar CHSL, Part 5, Prenatirth Derasar Road, Satellite",23.02384,72.52057,Ahmedabad,Gujarat,46300,03-05-2022 09:01,03-05-2022 09:01,380015,India,Satellite,Ashok Nagar Bus Stop
7256,"Meena Bazaar, New Pal Road - Pal","Shop No. 1, Ground Floor, Meena Bazaar, Opposite Siddhi Residency, New Pal Road, Pal",21.193087,72.77915,Surat,Gujarat,46300,03-05-2022 09:01,03-05-2022 09:01,394510,India,Pal,Pal Gam Circle
7257,"Sneh Vishwa Palace, Indrayani Nagar - Bhosari","Ground floor, Sneh Vishwa Palace, Sector No.1, Indrayani Nagar, Wakad Bhosari BRTS Road, Bhosari",18.635002,73.8495,Pune,Maharashtra,46300,03-05-2022 09:01,03-05-2022 09:01,411026,India,Bhosari,Life Line Hospital
7258,"One Place, Kaspate Wasti Road - Wakad","Shop No. 7, Building No. E, One Place - Wakad, Kaspate Wasti Road, Pimpri Chinchwad, Wakad",18.596262,73.769516,Pune,Maharashtra,46300,03-05-2022 09:01,03-05-2022 09:01,411057,India,Wakad,Mount Litera Zee School
7259,"Sri Lakshmi Narasimha Arcade, 2nd Cross Road - Bommanahalli","Shop No. 01, Ground Floor, Sri Lakshmi Narasimha Arcade, 2nd Cross Road, NGR Layout, Roopena Agrahara, Bommanahalli",12.911434,77.62415,Bengaluru,Karnataka,46300,03-05-2022 09:01,03-05-2022 09:01,560068,India,Bommanahalli,Fitness Origin Gym
7260,"Sukrithi, 2nd Stage - Nagarabhavi","Ground Floor, Sukrithi, 1st Block, 2nd Stage, BDA Layout, Nagarabhavi",12.980693,77.51185,Bengaluru,Karnataka,46300,03-05-2022 09:01,03-05-2022 09:01,560072,India,Nagarabhavi,Justbooks Library
7261,"Jay Residency CHSL, S.P Ring Road - Vastral","Shop No. A-9, Jay Residency CHSL, S.P Ring Road, Near United School, Behind Reliance Petrol Pump, Vastral",23.003748,72.67098,Ahmedabad,Gujarat,46300,03-05-2022 09:01,03-05-2022 09:01,382418,India,Vastral,Mansarovar Heights
7262,"Satva Apartment, Shantivan - Paldi","Shop No. 4A, Satva Apartment, Block F, Near Shantivan Bus Stand, Shantivan, Paldi",23.001797,72.56152,Ahmedabad,Gujarat,46300,03-05-2022 09:01,03-05-2022 09:01,380007,India,Paldi,Hemantkunj Society
7263,"Pallazo Apartment, Ramchandra Sakure Marg - Hadapsar","Shop No. 2, Pallazo Apartment, Ramchandra Sakure Marg, Hadapsar",18.511408,73.939224,Pune,Maharashtra,46300,03-05-2022 09:01,03-05-2022 09:01,411028,India,Hadapsar,Keshav Garden Apartments
7264,"The Dev Aurum CSL, Prahlad Nagar - Satellite","Shop No. 18, The Dev Aurum CSL, Anandnagar Cross Roads, Prahlad Nagar, Satellite",23.01153,72.515335,Ahmedabad,Gujarat,46300,03-05-2022 09:01,03-05-2022 09:01,380015,India,Satellite,Auda Garden
7265,"Pratham Paradise CHSL, Narol Aslali Highway - Narolgam","Shop No. 1, Pratham Paradise CHSL, Near Divine Life School, Narol Aslali Highway, Narolgam",22.95026,72.59922,Ahmedabad,Gujarat,46300,03-05-2022 09:01,03-05-2022 09:01,382405,India,Narolgam,Aryaman Heights
7266,"Pavilion Plaza, Karadva Dhindoli Road - Dindoli","Shop No. 35, Ground Floor, Pavilion Plaza, Near Mark Point, Karadva-Dhindoli Road, Dindoli",21.14911,72.87271,Surat,Gujarat,46300,03-05-2022 09:01,03-05-2022 09:01,394210,India,Dindoli,Sanjivani Multispeciality Hospital
7267,"Raisen Road, Lala Lajpat Rai Nagar - Bagh Dilkhusha","Ground Floor, Plot no. 7, Lala Lajpat Rai Nagar , Raisen Road, Opposite Kali Mandir, Bagh Dilkhusha",23.253239,77.426636,Bhopal,Madhya Pradesh,46300,03-05-2022 09:01,03-05-2022 09:01,462023,India,Bagh Dilkhusha,All Care Hospital
7268,Kamla Nagar - Kotra Sultanabad,"Ground Floor, Plot No. 62, Kamla Nagar, Near Khalsa Bhawan, Kotra Sultanabad",23.216974,77.39225,Bhopal,Madhya Pradesh,46300,03-05-2022 09:01,03-05-2022 09:01,462003,India,Kotra Sultanabad,Kheda Pati Hanuman Mandir
7269,"P.K. Tower, Trilanga Main Road - Trilanga","Shop No. 7, Ground Floor, P. K. Tower Mahakali Housing Society, Trilanga Main Road, Trilanga",23.189775,77.433495,Bhopal,Madhya Pradesh,46300,03-05-2022 09:01,03-05-2022 09:01,462039,India,Trilanga,Aura Mall
7270,"Corner Apartment, Raisen Road - Indrapuri","Ground Floor, Corner Apartment, Building No. 112, Sector B, Raisen road, Indrapuri",23.251774,77.46005,Bhopal,Madhya Pradesh,46300,03-05-2022 09:01,03-05-2022 09:01,462022,India,Indrapuri,Turant Mahadev Mandir
7271,"Rudra Tower, Hoshangabad Road - Misrod","Ground Floor, Rudra Tower, Hoshangabad road, Near Capital Mall, Misrod",23.163404,77.4679,Bhopal,Madhya Pradesh,46300,03-05-2022 09:01,03-05-2022 09:01,462047,India,Misrod,Rudra fitness Noxon Nutrition
7272,"Nariman Point Road, Sector R - Mahalaxmi Nagar","Shop No. 1, Ground Floor , Nariman Point Road, Sector R, Mahalaxmi Nagar",22.757511,75.91232,Indore,Madhya Pradesh,46300,03-05-2022 09:01,03-05-2022 09:01,452010,India,Mahalaxmi Nagar,Kibs Hospital
7273,"Nilayam CHSL, Lokmanya Colony - Kothrud","Shop No. 1, Nilayam CHSL, Lokmanya Colony, Poud Road, Kothrud",18.50781,73.80587,Pune,Maharashtra,46300,03-05-2022 09:01,03-05-2022 09:01,411038,India,Kothrud,Asha Clinic
7274,"Kedari Landmark, Kedari Nagar Road - Wanavadi","Shop No. 2, Kedari Landmark, Kedari Nagar Road, Wanavadi, Wanowrie",18.486504,73.89889,Pune,Maharashtra,46300,03-05-2022 09:01,03-05-2022 09:01,411040,India,Wanowrie,Bharat Petrol Pump
7275,"Astha Residency, Abrama Road - Mota Varachha","Shop No. 1, Ground Floor, Astha Medicare and Residency, Abrama Road, Mota Varachha",21.245892,72.888084,Surat,Gujarat,46300,03-05-2022 09:01,03-05-2022 09:01,394101,India,Mota Varachha,Tapi Arcade
7276,"Yash Arain CSL, Navnitbhai Patel Marg - Memnagar","Shop No. G20, Ground Floor, Yash Arian CSL, Navnitbhai Patel Marg, Near Vivekanand Chowk, Behind Kanak Party Plot, Memnagar",23.052095,72.53841,Ahmedabad,Gujarat,46300,03-05-2022 09:01,03-05-2022 09:01,380052,India,Memnagar,NewLife Women's Hospital
7277,"Smruti Garden, Pandhare Wasti Road - Punawale","Shop No. 1, Smruti Garden, Pandhare Wasti Road, Punawale",18.62657,73.7381,Pune,Maharashtra,46300,03-05-2022 09:01,03-05-2022 09:01,411033,India,Punawale,24 Life Blooms
7278,"Rayaansh Blossom, Kharegaon Bypass Road - Kalwa","Shop No. 1, Ground Floor, Rayaansh Blossom, Kharegaon Bypass Road, Near Kalwa Super Market, Kharegaon, Kalwa",19.204628,73.00093,Thane,Maharashtra,46300,03-05-2022 09:01,03-05-2022 09:01,400605,India,Kalwa,Parsik Library
7279,"Anand Industrial CHSL, Navghar Road - Bhayandar (East)","Shop No. 2, Ground floor, Anand Industrial Premises CHSL, Navghar Road, Bhayandar (East)",19.311657,72.85488,Mira Bhayandar,Maharashtra,46300,03-05-2022 09:01,03-05-2022 09:01,401105,India,Bhayandar (East),Bhayandar Municipal School
7280,"Komal Park Apartment, Goal Maidan - Ulhasnagar","Komal Park Apartment, Goal Maidan - Ulhasnagar, Dada Kamal Parwani Marg, Goal Maidan, Ulhasnagar",19.2368,73.1583,Ulhasnagar,Maharashtra,46300,03-05-2022 09:01,03-05-2022 09:01,421001,India,Ulhasnagar,Goal Maidan Bhaji Market
7281,"Bramhanagari CHSL, Bahu Patil Road - Khadki","Shop No. 1, Bramhanagari CHSL, A-Block, Bhau Patil Road, Khadki",18.566248,73.83163,Pune,Maharashtra,46300,03-05-2022 09:01,03-05-2022 09:01,411020,India,Khadki,Bhaurao Patil Chowk Bus Stop
7282,"President Hotel, Berasia Road - Badabagh","Shop No. 1, Ground Floor, President Hotel, Berasia Road, Near Canara Bank, Badabagh",23.267302,77.401,Bhopal,Madhya Pradesh,46300,03-05-2022 09:01,03-05-2022 09:01,462001,India,Badabagh,Bhopal Talkies Bus Stop
7283,"Vailankanni Darshan CHSL, Kohoj Khuntavali - Ambernath (West)","Shop No. 1, 2, & 3, Vailankanni Apartment, Kohoj Khuntavali, Ambernath (West)",19.215218,73.19249,Ambernath,Maharashtra,46300,03-05-2022 09:01,03-05-2022 09:01,421501,India,Ambernath (West),Hanuman Mandir
7284,"Jeev Ganga, Shivganga Nagar - Ambernath","Shop No.1, Ground Floor, Jeev Ganga, Shivganga Nagar, Ambernath",19.203495,73.17774,Ambernath,Maharashtra,46300,03-05-2022 09:01,03-05-2022 09:01,421501,India,Ambernath,Shivganga Open Gym
7285,"Namaskar CHSL, Royal Park road - Ambernath (East)","Shop No. 1, Ground Floor, Namaskar CHSL, Royal Park Road, Near Nana Nani Park, Navare Nagar, Ambernath (East)",19.196882,73.195435,Ambernath,Maharashtra,46300,03-05-2022 09:01,03-05-2022 09:01,421501,India,Ambernath (East),Jai Hind Co-op. Bank Limited
7286,"Landscape Garden CHSL, Pale Road - Ambernath (East)","Shop No. 34, Ground Floor, Landscape Garden CHSL, E Wing, Daffodil, Pale Road, Ambernath (East)",19.189585,73.17727,Ambernath,Maharashtra,46300,03-05-2022 09:01,03-05-2022 09:01,421501,India,Ambernath (East),Indra Vihar Housing Society
7287,"Nisarg Greens CHSL, B Cabin Road - Ambernath (East)","Shop No. 5, Ground floor, Tulip B, Nisarg Greens CHSL, B Cabin Road, Near Navare Nagar, Ambernath (East)",19.199873,73.19831,Ambernath,Maharashtra,46300,03-05-2022 09:01,03-05-2022 09:01,421501,India,Ambernath (East),Arya Gurukul School
7288,"Nirmal Residency CHSL, Link Road - Badlapur (East)","Shop No. 1, Ground floor, Wing A, Nirmal Residency CHSL, Opp. Tulsi Angan Complex, Link Road, Katrap, Badlapur (East)",19.169996,73.22644,Badlapur,Maharashtra,46300,03-05-2022 09:01,03-05-2022 09:01,421503,India,Badlapur (East),Muscle Prime Gym
7289,"Mohan Areca, Katrap - Badlapur (East)","Shop No. 8, Ground floor, D Wing, Mohan Areca, Katrap, Badlapur (East)",19.159119,73.227325,Badlapur,Maharashtra,46300,03-05-2022 09:01,03-05-2022 09:01,421503,India,Badlapur (East),Seven Palm's Hospital
7290,"Earth Alpha, Vasna Bhayli Link Road - Ashwamegh Nagar","Shop No. 15, Ground Floor, Earth Alpha, Opp Hanuman Temple, Vasna Bhayli Link Road, Ashwamegh Nagar",22.293634,73.141,Vadodara,Gujarat,46300,03-05-2022 09:01,03-05-2022 09:01,390012,India,Ashwamegh Nagar,Prarthana Bungalows
7291,Kodigehalli Main Road - Sahakar Nagar,"Ground Floor, Site No. 22, Kodigehalli Main Road, Near Goldfinch College, Sahakar Nagar",13.057761,77.58933,Bengaluru,Karnataka,46300,03-05-2022 09:01,03-05-2022 09:01,560092,India,Sahakar Nagar,Gundanjaneya Kalyana Mantapa
7292,"Santacruz Nita CHSL, Juhu Tara Road - Santacruz (West)","Shop No. 1B, Ground floor, Santacruz Nita CHSL, Block No. 33A, Juhu Tara Road, Santacruz (West)",19.084463,72.835655,Mumbai,Maharashtra,46300,03-05-2022 09:01,03-05-2022 09:01,400054,India,Santacruz (West),Santacruz Police Station Bus Stop
7293,"Shiv Mandir Residency CHSL, Abjibapa Lake Road - Vastral","Shop No. 1, , Block A, Shiv Mandir Residency CHSL, Vastral Lake, Abjibapa Lake Road, Vastral",22.994162,72.659645,Ahmedabad,Gujarat,46300,03-05-2022 09:01,03-05-2022 09:01,382418,India,Vastral,Divya Shrusti Residency
7294,"Brijdham Complex, Bairasia Road - Lambakheda","Shop No. 1, Ground Floor, Brijdham Complex, Bairasia Road, Lambakheda",23.326117,77.404045,Bhopal,Madhya Pradesh,46300,03-05-2022 09:01,03-05-2022 09:01,462038,India,Lambakheda,Lambakheda Bus Stop
7295,"Sardar Vallabhbhai Patel Yogna, Misrod Phase 2 - Salaiya","Ground Floor, Sardar Vallabhbhai Patel Yogna, Shahid Major Ajay Prasad Marg, Misrod Phase 2, Sector E, Bawadiya Kalan, Salaiya",23.167158,77.44287,Bhopal,Madhya Pradesh,46300,03-05-2022 09:01,03-05-2022 09:01,462026,India,Salaiya,Pride Arena
7296,"Shubham Monolith, Tisgaon - Kalyan (East)","Shop No. 1, C-Wing, Shubham Monolith, Tisgaon, Kalyan (East)",19.221079,73.13782,Kalyan,Maharashtra,46300,03-05-2022 09:01,03-05-2022 09:01,421306,India,Kalyan (East),Aamrai Police Station
7297,"Om Shreemangal CHSL, Chinchpada Road - Kalyan (East)","Shop No. 1, A-Wing, Om Shreemangal CHSL, Chinchpada Road, Katemanivali, Kalyan (East)",19.224457,73.14031,Kalyan,Maharashtra,46300,03-05-2022 09:01,03-05-2022 09:01,421306,India,Kalyan (East),Kalyan Ayyapa Mandir
7298,"Skylon, Chakki Naka - Kalyan (East)","Shop No. 4, Skylon, Near Chakki Naka, RTO Office, Netivali, Kalyan (East)",19.223389,73.12554,Kalyan,Maharashtra,46300,03-05-2022 09:01,03-05-2022 09:01,421306,India,Kalyan (East),Chakki Naka
7299,"Amber Harmony CHSL, Kalyan Road - Thakurli (East)","Shop No.7, Amber Harmony CHSL, New Thakurli, Kalyan Road, Kanchangaon, Thakurli (East)",19.229343,73.11033,Dombivli,Maharashtra,46300,03-05-2022 09:01,03-05-2022 09:01,421301,India,Thakurli (East),90 Feet Road
7300,"Anant Regency Phase III, Santoshi Mata Road - Kalyan (West)","Shop No. 5, Building No. 1, Anant Regency - Phase 3, Padmavati Jain Society Road, Kalyan (West), Kalyan (West)",19.245306,73.133484,Kalyan,Maharashtra,46300,03-05-2022 09:01,03-05-2022 09:01,421301,India,Kalyan (West),Shree Adhinath Rajendra Jain Shwetambar Mandir
7301,"Shree Gajanan Maharaj Nagar CHSL, Mohindar Singh Kabal Singh Rd, Kalyan (West)","Shop No. 4, A-Wing, Shree Gajanan Maharaj Nagar CHSL, Gajanan Maharaj Nagar, Mohindar Singh Kabal Singh Rd, Kalyan (West)",19.25045,73.12801,Kalyan,Maharashtra,46300,03-05-2022 09:01,03-05-2022 09:01,421301,India,Kalyan (West),Mata Ramabai Ambedkar Udyan
7302,"Kulswamini Prasanna, Shivaji Nagar - Dombivli (West)","Shop No. 3, Building No.1, Kulswamini Prasanna, New Survey No. 86, Hissa No. 2, Shivaji Nagar, Dombivli (West)",19.232721,73.09006,Dombivli,Maharashtra,46300,03-05-2022 09:01,03-05-2022 09:01,421202,India,Dombivli (West),Ganesh Ghat
7303,"Seasons Elite CHSL, Godrej Hill - Kalyan (West)","Shop No. 5 & 6, Seasons Elite CHSL, Godrej Hill, Barave, Kalyan (West)",19.259546,73.14575,Kalyan,Maharashtra,46300,03-05-2022 09:01,03-05-2022 09:01,421301,India,Kalyan (West),Hanuman Mandir
7304,"Sonata Commercial Premises CSL, MIDC - Dombivli (East)","Shop No.15, Sonata Commercial Premises CSL, Plot No. 46/01, Nanasaheb Dharmadhikari Marg, MIDC, Dombivli (East)",19.207928,73.10308,Dombivli,Maharashtra,46300,03-05-2022 09:01,03-05-2022 09:01,421203,India,Dombivli (East),SRV Mamata Hospital
7305,"Citi Mall, Dombivli Industrial Estate - Dombivli (East)","Shop/Unit No.26, Citi Mall, Plot No. P-4/1, , Dombivli Industrial Area, Asade Golavali, Dombivli (East)",19.213797,73.10599,Dombivli,Maharashtra,46300,03-05-2022 09:01,03-05-2022 09:01,421203,India,Dombivli (East),K. V. Pendharkar College
7306,"Shakuntala Plaza, Lodha Heaven, Dombivli - (East)","Shop No. 2 & 3, Shakuntala Plaza, S. No. 128, H.No.1, Lodha Heaven, Nilje, Dombivli (East)",19.158768,73.076546,Dombivli,Maharashtra,46300,03-05-2022 09:01,03-05-2022 09:01,421204,India,Dombivli (East),Shree Manav Kalyan Hospital Pvt Ltd
7307,"Laxman Apartment, Tisgaon - Kalyan (East)","Shop No. 7, Laxman Apartment, Malang Road, Tisgaon, Kalyan (East)",19.220955,73.12851,Kalyan,Maharashtra,46300,03-05-2022 09:01,03-05-2022 09:01,421306,India,Kalyan (East),Gav Devi Mandir Road
7308,"Regency Park CHSL, Chakkinaka, Kalyan (East)","Shop No. 23, Bldg E, Regency Park CHSL, Netivali Village, Mangal Road, Chakkinaka, Kalyan (East)",19.225576,73.126015,Kalyan,Maharashtra,46300,03-05-2022 09:01,03-05-2022 09:01,421306,India,Kalyan (East),Chakki Naka
7309,"Sanchit Bungalow & Sapphire CHSL, B.V. Road, Kalyan - (West)","Shop No. 8, 12, 13, Sanchit Bungalow and Sapphire CHSL, Vaidya Wada, Bharatacharya Vaidya Road, Kalyan (West)",19.24494,73.1266,Kalyan,Maharashtra,46300,03-05-2022 09:01,03-05-2022 09:01,421301,India,Kalyan (West),Bhartacharya Vadiya Chowk
7310,"Mega Silver, Atmaram Kene Residency - Kalyan (West)","Shop No. 1, Type A Building, Mega Silver, Atmaram Kene Residency, Karnik Road, Rambaug Lane 4, Chikanghar, Kalyan (West)",19.243544,73.13948,Kalyan,Maharashtra,46300,03-05-2022 09:01,03-05-2022 09:01,421301,India,Kalyan (West),Holy Cross School
7311,"New Era, Gauripada - Kalyan (West)","Shop No. 28, C-Wing, Building No. F1, New Era, Near Yogidham CHSL, Gauripada, Kalyan (West)",19.24686,73.15292,Kalyan,Maharashtra,46300,03-05-2022 09:01,03-05-2022 09:01,421301,India,Kalyan (West),Rosemary Building
7312,"Regency Avenue CHSL, Santoshi Mata Road - Kalyan (West)","Shop No. 6, Ground floor, Wing C, Regency Avenue CHSL, Santoshi Mata Road, Kalyan (West)",19.241941,73.14514,Kalyan,Maharashtra,46300,03-05-2022 09:01,03-05-2022 09:01,421301,India,Kalyan (West),Smart Kids Nursery
7313,"Jay Laxmi Krupa CHSL, Kalyan Road - Dombivli (East)","Shop No. A005, Ground floor, Jay Laxmi Krupa CHSL, Kalyan Road, Dombivli (East)",19.21563,73.09619,Dombivli,Maharashtra,46300,03-05-2022 09:01,03-05-2022 09:01,421201,India,Dombivli (East),Manjunath School
7314,"Heena Plaza CHSL, Rajaji Path - Dombivli (East)","Shop No. 6, Ground floor, Heena Plaza CHSL, Opp. Adarsh Vidyalaya, Rajaji Path, Ramagar, Dombivli (East)",19.214802,73.08367,Dombivli,Maharashtra,46300,03-05-2022 09:01,03-05-2022 09:01,421201,India,Dombivli (East),Shreeram Nursing Home
7315,"Puboni Building, Janapriya Road - Kapra","Ground Floor, Puboni Building, Plot No. 5, Sadhana Vihar Colony, Phase-I, Janapriya Road, Kapra",17.491747,78.55638,Hyderabad,Telangana,46300,03-05-2022 09:01,03-05-2022 09:01,500062,India,Kapra,Green Park Enclave
7316,"Sri Nilayam, Pilot Rajkumar Road - Malkajgiri","Ground Floor, Sri Nilayam Building, Plot No.230, Jyothi Nagar, Pilot Rajkumar Road, Malkajgiri",17.444279,78.52531,Hyderabad,Telangana,46300,03-05-2022 09:01,03-05-2022 09:01,500047,India,Malkajgiri,Hanumanpet Park
7317,Sree Venkata Sainagar Colony - Alwal,"Ground Floor, Sree Venkata Sainagar Colony, Venkatapuram Cross Road, Alwal",17.499361,78.499565,Secunderabad,Telangana,46300,03-05-2022 09:01,03-05-2022 09:01,500010,India,Alwal,West Venkatapuram Bus Stop
